<?xml version="1.0" encoding="UTF-8" ?>
<gpx version="1.1" xmlns:xsi="http://www.w3.org/2001/XMLSchema-instance"
    xmlns="http://www.topografix.com/GPX/1/1"
    xsi:schemaLocation="http://www.topografix.com/GPX/1/1 http://www.topografix.com/GPX/1/1/gpx.xsd"
    creator="Openrunner - https://www.openrunner.com" >	<trk>
	                   <name>Trail Chaumuzy _24km-23583283</name>
						<trkseg>
					<trkpt lat="49.176830" lon="3.858080">
						<ele>135</ele>
						<time>2026-06-07T14:35:37Z</time>
					</trkpt>
					<trkpt lat="49.175830" lon="3.856960">
						<ele>139</ele>
						<time>2026-06-07T14:36:39Z</time>
					</trkpt>
					<trkpt lat="49.175700" lon="3.856810">
						<ele>140</ele>
						<time>2026-06-07T14:36:47Z</time>
					</trkpt>
					<trkpt lat="49.176180" lon="3.855970">
						<ele>146</ele>
						<time>2026-06-07T14:37:24Z</time>
					</trkpt>
					<trkpt lat="49.176320" lon="3.855790">
						<ele>149</ele>
						<time>2026-06-07T14:37:33Z</time>
					</trkpt>
					<trkpt lat="49.176410" lon="3.855670">
						<ele>151</ele>
						<time>2026-06-07T14:37:39Z</time>
					</trkpt>
					<trkpt lat="49.176650" lon="3.855450">
						<ele>155</ele>
						<time>2026-06-07T14:37:53Z</time>
					</trkpt>
					<trkpt lat="49.177090" lon="3.855080">
						<ele>159</ele>
						<time>2026-06-07T14:38:18Z</time>
					</trkpt>
					<trkpt lat="49.177360" lon="3.854820">
						<ele>162</ele>
						<time>2026-06-07T14:38:34Z</time>
					</trkpt>
					<trkpt lat="49.177390" lon="3.854790">
						<ele>163</ele>
						<time>2026-06-07T14:38:36Z</time>
					</trkpt>
					<trkpt lat="49.177590" lon="3.854440">
						<ele>165</ele>
						<time>2026-06-07T14:38:51Z</time>
					</trkpt>
					<trkpt lat="49.177680" lon="3.854160">
						<ele>167</ele>
						<time>2026-06-07T14:39:01Z</time>
					</trkpt>
					<trkpt lat="49.177730" lon="3.853960">
						<ele>167</ele>
						<time>2026-06-07T14:39:08Z</time>
					</trkpt>
					<trkpt lat="49.177750" lon="3.853830">
						<ele>168</ele>
						<time>2026-06-07T14:39:12Z</time>
					</trkpt>
					<trkpt lat="49.177750" lon="3.853690">
						<ele>168</ele>
						<time>2026-06-07T14:39:17Z</time>
					</trkpt>
					<trkpt lat="49.177750" lon="3.853580">
						<ele>169</ele>
						<time>2026-06-07T14:39:21Z</time>
					</trkpt>
					<trkpt lat="49.177710" lon="3.853010">
						<ele>172</ele>
						<time>2026-06-07T14:39:39Z</time>
					</trkpt>
					<trkpt lat="49.177700" lon="3.852630">
						<ele>175</ele>
						<time>2026-06-07T14:39:52Z</time>
					</trkpt>
					<trkpt lat="49.177790" lon="3.852190">
						<ele>177</ele>
						<time>2026-06-07T14:40:07Z</time>
					</trkpt>
					<trkpt lat="49.177830" lon="3.852030">
						<ele>177</ele>
						<time>2026-06-07T14:40:13Z</time>
					</trkpt>
					<trkpt lat="49.177990" lon="3.851470">
						<ele>180</ele>
						<time>2026-06-07T14:40:33Z</time>
					</trkpt>
					<trkpt lat="49.178180" lon="3.850930">
						<ele>184</ele>
						<time>2026-06-07T14:40:53Z</time>
					</trkpt>
					<trkpt lat="49.178510" lon="3.850320">
						<ele>187</ele>
						<time>2026-06-07T14:41:18Z</time>
					</trkpt>
					<trkpt lat="49.178660" lon="3.850030">
						<ele>188</ele>
						<time>2026-06-07T14:41:31Z</time>
					</trkpt>
					<trkpt lat="49.178810" lon="3.849640">
						<ele>190</ele>
						<time>2026-06-07T14:41:45Z</time>
					</trkpt>
					<trkpt lat="49.178890" lon="3.849350">
						<ele>192</ele>
						<time>2026-06-07T14:41:56Z</time>
					</trkpt>
					<trkpt lat="49.178940" lon="3.848950">
						<ele>196</ele>
						<time>2026-06-07T14:42:09Z</time>
					</trkpt>
					<trkpt lat="49.178960" lon="3.848730">
						<ele>198</ele>
						<time>2026-06-07T14:42:16Z</time>
					</trkpt>
					<trkpt lat="49.178960" lon="3.848650">
						<ele>198</ele>
						<time>2026-06-07T14:42:19Z</time>
					</trkpt>
					<trkpt lat="49.179040" lon="3.847840">
						<ele>204</ele>
						<time>2026-06-07T14:42:46Z</time>
					</trkpt>
					<trkpt lat="49.179020" lon="3.847790">
						<ele>205</ele>
						<time>2026-06-07T14:42:48Z</time>
					</trkpt>
					<trkpt lat="49.178920" lon="3.847530">
						<ele>208</ele>
						<time>2026-06-07T14:42:57Z</time>
					</trkpt>
					<trkpt lat="49.178910" lon="3.847510">
						<ele>208</ele>
						<time>2026-06-07T14:42:58Z</time>
					</trkpt>
					<trkpt lat="49.177740" lon="3.848540">
						<ele>211</ele>
						<time>2026-06-07T14:44:06Z</time>
					</trkpt>
					<trkpt lat="49.176930" lon="3.849060">
						<ele>212</ele>
						<time>2026-06-07T14:44:50Z</time>
					</trkpt>
					<trkpt lat="49.176600" lon="3.849270">
						<ele>211</ele>
						<time>2026-06-07T14:45:08Z</time>
					</trkpt>
					<trkpt lat="49.176300" lon="3.849590">
						<ele>208</ele>
						<time>2026-06-07T14:45:26Z</time>
					</trkpt>
					<trkpt lat="49.176130" lon="3.849700">
						<ele>207</ele>
						<time>2026-06-07T14:45:35Z</time>
					</trkpt>
					<trkpt lat="49.175950" lon="3.849740">
						<ele>207</ele>
						<time>2026-06-07T14:45:44Z</time>
					</trkpt>
					<trkpt lat="49.175670" lon="3.849750">
						<ele>207</ele>
						<time>2026-06-07T14:45:58Z</time>
					</trkpt>
					<trkpt lat="49.175310" lon="3.849750">
						<ele>208</ele>
						<time>2026-06-07T14:46:16Z</time>
					</trkpt>
					<trkpt lat="49.174710" lon="3.850150">
						<ele>205</ele>
						<time>2026-06-07T14:46:49Z</time>
					</trkpt>
					<trkpt lat="49.174480" lon="3.850370">
						<ele>203</ele>
						<time>2026-06-07T14:47:03Z</time>
					</trkpt>
					<trkpt lat="49.174190" lon="3.850560">
						<ele>202</ele>
						<time>2026-06-07T14:47:18Z</time>
					</trkpt>
					<trkpt lat="49.174080" lon="3.850620">
						<ele>202</ele>
						<time>2026-06-07T14:47:24Z</time>
					</trkpt>
					<trkpt lat="49.174000" lon="3.850660">
						<ele>203</ele>
						<time>2026-06-07T14:47:29Z</time>
					</trkpt>
					<trkpt lat="49.173630" lon="3.850910">
						<ele>203</ele>
						<time>2026-06-07T14:47:49Z</time>
					</trkpt>
					<trkpt lat="49.173110" lon="3.851540">
						<ele>203</ele>
						<time>2026-06-07T14:48:22Z</time>
					</trkpt>
					<trkpt lat="49.172560" lon="3.852150">
						<ele>206</ele>
						<time>2026-06-07T14:48:56Z</time>
					</trkpt>
					<trkpt lat="49.171970" lon="3.852700">
						<ele>209</ele>
						<time>2026-06-07T14:49:31Z</time>
					</trkpt>
					<trkpt lat="49.171940" lon="3.852720">
						<ele>209</ele>
						<time>2026-06-07T14:49:32Z</time>
					</trkpt>
					<trkpt lat="49.171950" lon="3.852760">
						<ele>209</ele>
						<time>2026-06-07T14:49:34Z</time>
					</trkpt>
					<trkpt lat="49.171900" lon="3.853740">
						<ele>202</ele>
						<time>2026-06-07T14:50:06Z</time>
					</trkpt>
					<trkpt lat="49.171900" lon="3.854070">
						<ele>199</ele>
						<time>2026-06-07T14:50:17Z</time>
					</trkpt>
					<trkpt lat="49.171910" lon="3.854130">
						<ele>199</ele>
						<time>2026-06-07T14:50:19Z</time>
					</trkpt>
					<trkpt lat="49.171940" lon="3.854300">
						<ele>197</ele>
						<time>2026-06-07T14:50:24Z</time>
					</trkpt>
					<trkpt lat="49.172090" lon="3.854940">
						<ele>191</ele>
						<time>2026-06-07T14:50:47Z</time>
					</trkpt>
					<trkpt lat="49.172240" lon="3.855480">
						<ele>186</ele>
						<time>2026-06-07T14:51:06Z</time>
					</trkpt>
					<trkpt lat="49.172280" lon="3.855590">
						<ele>185</ele>
						<time>2026-06-07T14:51:10Z</time>
					</trkpt>
					<trkpt lat="49.172530" lon="3.856250">
						<ele>179</ele>
						<time>2026-06-07T14:51:35Z</time>
					</trkpt>
					<trkpt lat="49.172670" lon="3.856610">
						<ele>175</ele>
						<time>2026-06-07T14:51:49Z</time>
					</trkpt>
					<trkpt lat="49.172900" lon="3.857230">
						<ele>171</ele>
						<time>2026-06-07T14:52:12Z</time>
					</trkpt>
					<trkpt lat="49.172900" lon="3.857230">
						<ele>171</ele>
						<time>2026-06-07T14:52:12Z</time>
					</trkpt>
					<trkpt lat="49.173270" lon="3.858190">
						<ele>164</ele>
						<time>2026-06-07T14:52:48Z</time>
					</trkpt>
					<trkpt lat="49.173310" lon="3.858230">
						<ele>163</ele>
						<time>2026-06-07T14:52:51Z</time>
					</trkpt>
					<trkpt lat="49.173720" lon="3.858680">
						<ele>158</ele>
						<time>2026-06-07T14:53:16Z</time>
					</trkpt>
					<trkpt lat="49.173940" lon="3.858900">
						<ele>155</ele>
						<time>2026-06-07T14:53:29Z</time>
					</trkpt>
					<trkpt lat="49.174460" lon="3.859500">
						<ele>149</ele>
						<time>2026-06-07T14:54:02Z</time>
					</trkpt>
					<trkpt lat="49.174540" lon="3.859590">
						<ele>148</ele>
						<time>2026-06-07T14:54:07Z</time>
					</trkpt>
					<trkpt lat="49.174550" lon="3.859360">
						<ele>148</ele>
						<time>2026-06-07T14:54:14Z</time>
					</trkpt>
					<trkpt lat="49.174620" lon="3.859030">
						<ele>147</ele>
						<time>2026-06-07T14:54:26Z</time>
					</trkpt>
					<trkpt lat="49.174790" lon="3.858450">
						<ele>144</ele>
						<time>2026-06-07T14:54:46Z</time>
					</trkpt>
					<trkpt lat="49.175080" lon="3.857790">
						<ele>142</ele>
						<time>2026-06-07T14:55:12Z</time>
					</trkpt>
					<trkpt lat="49.175120" lon="3.857710">
						<ele>142</ele>
						<time>2026-06-07T14:55:16Z</time>
					</trkpt>
					<trkpt lat="49.175720" lon="3.858250">
						<ele>136</ele>
						<time>2026-06-07T14:55:51Z</time>
					</trkpt>
					<trkpt lat="49.176280" lon="3.858710">
						<ele>135</ele>
						<time>2026-06-07T14:56:22Z</time>
					</trkpt>
					<trkpt lat="49.176350" lon="3.858780">
						<ele>134</ele>
						<time>2026-06-07T14:56:27Z</time>
					</trkpt>
					<trkpt lat="49.176600" lon="3.859030">
						<ele>133</ele>
						<time>2026-06-07T14:56:42Z</time>
					</trkpt>
					<trkpt lat="49.176980" lon="3.859340">
						<ele>132</ele>
						<time>2026-06-07T14:57:03Z</time>
					</trkpt>
					<trkpt lat="49.177290" lon="3.859580">
						<ele>131</ele>
						<time>2026-06-07T14:57:20Z</time>
					</trkpt>
					<trkpt lat="49.177270" lon="3.859620">
						<ele>131</ele>
						<time>2026-06-07T14:57:22Z</time>
					</trkpt>
					<trkpt lat="49.176720" lon="3.860610">
						<ele>132</ele>
						<time>2026-06-07T14:58:05Z</time>
					</trkpt>
					<trkpt lat="49.176380" lon="3.861250">
						<ele>133</ele>
						<time>2026-06-07T14:58:32Z</time>
					</trkpt>
					<trkpt lat="49.176200" lon="3.861590">
						<ele>133</ele>
						<time>2026-06-07T14:58:46Z</time>
					</trkpt>
					<trkpt lat="49.175800" lon="3.862650">
						<ele>133</ele>
						<time>2026-06-07T14:59:26Z</time>
					</trkpt>
					<trkpt lat="49.175640" lon="3.862990">
						<ele>134</ele>
						<time>2026-06-07T14:59:40Z</time>
					</trkpt>
					<trkpt lat="49.175450" lon="3.863280">
						<ele>136</ele>
						<time>2026-06-07T14:59:53Z</time>
					</trkpt>
					<trkpt lat="49.175240" lon="3.863570">
						<ele>137</ele>
						<time>2026-06-07T15:00:07Z</time>
					</trkpt>
					<trkpt lat="49.175110" lon="3.863950">
						<ele>137</ele>
						<time>2026-06-07T15:00:21Z</time>
					</trkpt>
					<trkpt lat="49.174960" lon="3.864460">
						<ele>138</ele>
						<time>2026-06-07T15:00:40Z</time>
					</trkpt>
					<trkpt lat="49.174700" lon="3.865100">
						<ele>138</ele>
						<time>2026-06-07T15:01:04Z</time>
					</trkpt>
					<trkpt lat="49.174610" lon="3.865960">
						<ele>135</ele>
						<time>2026-06-07T15:01:33Z</time>
					</trkpt>
					<trkpt lat="49.174550" lon="3.866660">
						<ele>133</ele>
						<time>2026-06-07T15:01:56Z</time>
					</trkpt>
					<trkpt lat="49.174460" lon="3.866740">
						<ele>132</ele>
						<time>2026-06-07T15:02:01Z</time>
					</trkpt>
					<trkpt lat="49.174310" lon="3.867070">
						<ele>131</ele>
						<time>2026-06-07T15:02:14Z</time>
					</trkpt>
					<trkpt lat="49.174210" lon="3.867080">
						<ele>131</ele>
						<time>2026-06-07T15:02:19Z</time>
					</trkpt>
					<trkpt lat="49.173830" lon="3.867020">
						<ele>131</ele>
						<time>2026-06-07T15:02:38Z</time>
					</trkpt>
					<trkpt lat="49.173570" lon="3.867040">
						<ele>131</ele>
						<time>2026-06-07T15:02:51Z</time>
					</trkpt>
					<trkpt lat="49.173320" lon="3.867120">
						<ele>130</ele>
						<time>2026-06-07T15:03:04Z</time>
					</trkpt>
					<trkpt lat="49.173140" lon="3.867250">
						<ele>129</ele>
						<time>2026-06-07T15:03:14Z</time>
					</trkpt>
					<trkpt lat="49.172920" lon="3.867480">
						<ele>127</ele>
						<time>2026-06-07T15:03:27Z</time>
					</trkpt>
					<trkpt lat="49.172420" lon="3.868250">
						<ele>123</ele>
						<time>2026-06-07T15:04:03Z</time>
					</trkpt>
					<trkpt lat="49.171550" lon="3.869400">
						<ele>127</ele>
						<time>2026-06-07T15:05:00Z</time>
					</trkpt>
					<trkpt lat="49.171180" lon="3.869800">
						<ele>129</ele>
						<time>2026-06-07T15:05:23Z</time>
					</trkpt>
					<trkpt lat="49.170950" lon="3.869950">
						<ele>130</ele>
						<time>2026-06-07T15:05:36Z</time>
					</trkpt>
					<trkpt lat="49.170620" lon="3.870090">
						<ele>130</ele>
						<time>2026-06-07T15:05:53Z</time>
					</trkpt>
					<trkpt lat="49.170060" lon="3.870290">
						<ele>132</ele>
						<time>2026-06-07T15:06:22Z</time>
					</trkpt>
					<trkpt lat="49.169970" lon="3.870280">
						<ele>132</ele>
						<time>2026-06-07T15:06:26Z</time>
					</trkpt>
					<trkpt lat="49.169820" lon="3.870170">
						<ele>132</ele>
						<time>2026-06-07T15:06:34Z</time>
					</trkpt>
					<trkpt lat="49.169670" lon="3.869840">
						<ele>133</ele>
						<time>2026-06-07T15:06:48Z</time>
					</trkpt>
					<trkpt lat="49.169530" lon="3.869510">
						<ele>133</ele>
						<time>2026-06-07T15:07:00Z</time>
					</trkpt>
					<trkpt lat="49.169390" lon="3.869280">
						<ele>133</ele>
						<time>2026-06-07T15:07:11Z</time>
					</trkpt>
					<trkpt lat="49.169200" lon="3.869140">
						<ele>134</ele>
						<time>2026-06-07T15:07:21Z</time>
					</trkpt>
					<trkpt lat="49.168930" lon="3.869020">
						<ele>135</ele>
						<time>2026-06-07T15:07:35Z</time>
					</trkpt>
					<trkpt lat="49.167820" lon="3.868680">
						<ele>135</ele>
						<time>2026-06-07T15:08:32Z</time>
					</trkpt>
					<trkpt lat="49.167290" lon="3.868510">
						<ele>136</ele>
						<time>2026-06-07T15:08:59Z</time>
					</trkpt>
					<trkpt lat="49.167010" lon="3.868410">
						<ele>138</ele>
						<time>2026-06-07T15:09:13Z</time>
					</trkpt>
					<trkpt lat="49.166810" lon="3.868410">
						<ele>139</ele>
						<time>2026-06-07T15:09:23Z</time>
					</trkpt>
					<trkpt lat="49.166600" lon="3.868510">
						<ele>140</ele>
						<time>2026-06-07T15:09:34Z</time>
					</trkpt>
					<trkpt lat="49.165860" lon="3.869120">
						<ele>146</ele>
						<time>2026-06-07T15:10:17Z</time>
					</trkpt>
					<trkpt lat="49.165770" lon="3.869200">
						<ele>147</ele>
						<time>2026-06-07T15:10:22Z</time>
					</trkpt>
					<trkpt lat="49.165210" lon="3.869690">
						<ele>151</ele>
						<time>2026-06-07T15:10:54Z</time>
					</trkpt>
					<trkpt lat="49.164940" lon="3.869890">
						<ele>152</ele>
						<time>2026-06-07T15:11:09Z</time>
					</trkpt>
					<trkpt lat="49.164730" lon="3.869990">
						<ele>153</ele>
						<time>2026-06-07T15:11:20Z</time>
					</trkpt>
					<trkpt lat="49.164530" lon="3.870020">
						<ele>154</ele>
						<time>2026-06-07T15:11:30Z</time>
					</trkpt>
					<trkpt lat="49.164190" lon="3.870030">
						<ele>157</ele>
						<time>2026-06-07T15:11:47Z</time>
					</trkpt>
					<trkpt lat="49.163880" lon="3.869980">
						<ele>157</ele>
						<time>2026-06-07T15:12:03Z</time>
					</trkpt>
					<trkpt lat="49.163740" lon="3.869940">
						<ele>157</ele>
						<time>2026-06-07T15:12:10Z</time>
					</trkpt>
					<trkpt lat="49.163560" lon="3.869890">
						<ele>157</ele>
						<time>2026-06-07T15:12:19Z</time>
					</trkpt>
					<trkpt lat="49.163350" lon="3.869680">
						<ele>159</ele>
						<time>2026-06-07T15:12:32Z</time>
					</trkpt>
					<trkpt lat="49.161430" lon="3.867420">
						<ele>174</ele>
						<time>2026-06-07T15:14:33Z</time>
					</trkpt>
					<trkpt lat="49.160690" lon="3.866550">
						<ele>181</ele>
						<time>2026-06-07T15:15:20Z</time>
					</trkpt>
					<trkpt lat="49.160220" lon="3.866030">
						<ele>185</ele>
						<time>2026-06-07T15:15:49Z</time>
					</trkpt>
					<trkpt lat="49.159590" lon="3.865450">
						<ele>189</ele>
						<time>2026-06-07T15:16:25Z</time>
					</trkpt>
					<trkpt lat="49.159490" lon="3.865370">
						<ele>190</ele>
						<time>2026-06-07T15:16:31Z</time>
					</trkpt>
					<trkpt lat="49.158140" lon="3.864320">
						<ele>197</ele>
						<time>2026-06-07T15:17:47Z</time>
					</trkpt>
					<trkpt lat="49.157560" lon="3.863760">
						<ele>202</ele>
						<time>2026-06-07T15:18:21Z</time>
					</trkpt>
					<trkpt lat="49.157490" lon="3.863710">
						<ele>203</ele>
						<time>2026-06-07T15:18:25Z</time>
					</trkpt>
					<trkpt lat="49.157400" lon="3.863650">
						<ele>204</ele>
						<time>2026-06-07T15:18:30Z</time>
					</trkpt>
					<trkpt lat="49.156810" lon="3.863640">
						<ele>208</ele>
						<time>2026-06-07T15:18:59Z</time>
					</trkpt>
					<trkpt lat="49.156430" lon="3.863600">
						<ele>212</ele>
						<time>2026-06-07T15:19:18Z</time>
					</trkpt>
					<trkpt lat="49.155950" lon="3.863750">
						<ele>214</ele>
						<time>2026-06-07T15:19:43Z</time>
					</trkpt>
					<trkpt lat="49.155360" lon="3.864030">
						<ele>218</ele>
						<time>2026-06-07T15:20:14Z</time>
					</trkpt>
					<trkpt lat="49.155270" lon="3.864080">
						<ele>219</ele>
						<time>2026-06-07T15:20:19Z</time>
					</trkpt>
					<trkpt lat="49.153800" lon="3.864850">
						<ele>229</ele>
						<time>2026-06-07T15:21:36Z</time>
					</trkpt>
					<trkpt lat="49.153610" lon="3.864940">
						<ele>230</ele>
						<time>2026-06-07T15:21:46Z</time>
					</trkpt>
					<trkpt lat="49.153450" lon="3.865180">
						<ele>230</ele>
						<time>2026-06-07T15:21:58Z</time>
					</trkpt>
					<trkpt lat="49.153160" lon="3.865630">
						<ele>229</ele>
						<time>2026-06-07T15:22:18Z</time>
					</trkpt>
					<trkpt lat="49.152530" lon="3.866670">
						<ele>231</ele>
						<time>2026-06-07T15:23:05Z</time>
					</trkpt>
					<trkpt lat="49.152270" lon="3.867220">
						<ele>233</ele>
						<time>2026-06-07T15:23:27Z</time>
					</trkpt>
					<trkpt lat="49.151890" lon="3.867900">
						<ele>238</ele>
						<time>2026-06-07T15:23:56Z</time>
					</trkpt>
					<trkpt lat="49.151450" lon="3.868690">
						<ele>244</ele>
						<time>2026-06-07T15:24:30Z</time>
					</trkpt>
					<trkpt lat="49.151340" lon="3.868880">
						<ele>245</ele>
						<time>2026-06-07T15:24:38Z</time>
					</trkpt>
					<trkpt lat="49.151030" lon="3.869230">
						<ele>247</ele>
						<time>2026-06-07T15:24:58Z</time>
					</trkpt>
					<trkpt lat="49.150990" lon="3.869260">
						<ele>247</ele>
						<time>2026-06-07T15:25:00Z</time>
					</trkpt>
					<trkpt lat="49.150470" lon="3.869610">
						<ele>249</ele>
						<time>2026-06-07T15:25:28Z</time>
					</trkpt>
					<trkpt lat="49.149080" lon="3.870450">
						<ele>251</ele>
						<time>2026-06-07T15:26:43Z</time>
					</trkpt>
					<trkpt lat="49.148170" lon="3.871060">
						<ele>253</ele>
						<time>2026-06-07T15:27:33Z</time>
					</trkpt>
					<trkpt lat="49.148020" lon="3.871130">
						<ele>253</ele>
						<time>2026-06-07T15:27:41Z</time>
					</trkpt>
					<trkpt lat="49.147620" lon="3.871340">
						<ele>255</ele>
						<time>2026-06-07T15:28:02Z</time>
					</trkpt>
					<trkpt lat="49.147510" lon="3.871380">
						<ele>255</ele>
						<time>2026-06-07T15:28:08Z</time>
					</trkpt>
					<trkpt lat="49.147360" lon="3.871430">
						<ele>255</ele>
						<time>2026-06-07T15:28:15Z</time>
					</trkpt>
					<trkpt lat="49.146710" lon="3.871420">
						<ele>256</ele>
						<time>2026-06-07T15:28:48Z</time>
					</trkpt>
					<trkpt lat="49.146410" lon="3.871550">
						<ele>257</ele>
						<time>2026-06-07T15:29:03Z</time>
					</trkpt>
					<trkpt lat="49.146150" lon="3.871680">
						<ele>258</ele>
						<time>2026-06-07T15:29:17Z</time>
					</trkpt>
					<trkpt lat="49.145770" lon="3.871690">
						<ele>259</ele>
						<time>2026-06-07T15:29:36Z</time>
					</trkpt>
					<trkpt lat="49.145080" lon="3.871620">
						<ele>260</ele>
						<time>2026-06-07T15:30:11Z</time>
					</trkpt>
					<trkpt lat="49.144690" lon="3.871530">
						<ele>260</ele>
						<time>2026-06-07T15:30:30Z</time>
					</trkpt>
					<trkpt lat="49.144620" lon="3.871520">
						<ele>261</ele>
						<time>2026-06-07T15:30:34Z</time>
					</trkpt>
					<trkpt lat="49.144330" lon="3.872130">
						<ele>260</ele>
						<time>2026-06-07T15:30:59Z</time>
					</trkpt>
					<trkpt lat="49.144330" lon="3.872150">
						<ele>260</ele>
						<time>2026-06-07T15:30:59Z</time>
					</trkpt>
					<trkpt lat="49.143700" lon="3.873630">
						<ele>257</ele>
						<time>2026-06-07T15:31:57Z</time>
					</trkpt>
					<trkpt lat="49.143290" lon="3.874530">
						<ele>258</ele>
						<time>2026-06-07T15:32:33Z</time>
					</trkpt>
					<trkpt lat="49.142440" lon="3.876350">
						<ele>258</ele>
						<time>2026-06-07T15:33:46Z</time>
					</trkpt>
					<trkpt lat="49.142060" lon="3.877170">
						<ele>257</ele>
						<time>2026-06-07T15:34:19Z</time>
					</trkpt>
					<trkpt lat="49.141420" lon="3.878560">
						<ele>258</ele>
						<time>2026-06-07T15:35:15Z</time>
					</trkpt>
					<trkpt lat="49.140730" lon="3.880090">
						<ele>258</ele>
						<time>2026-06-07T15:36:16Z</time>
					</trkpt>
					<trkpt lat="49.140540" lon="3.880560">
						<ele>259</ele>
						<time>2026-06-07T15:36:34Z</time>
					</trkpt>
					<trkpt lat="49.140430" lon="3.880530">
						<ele>259</ele>
						<time>2026-06-07T15:36:39Z</time>
					</trkpt>
					<trkpt lat="49.137460" lon="3.878750">
						<ele>261</ele>
						<time>2026-06-07T15:39:19Z</time>
					</trkpt>
					<trkpt lat="49.137320" lon="3.878650">
						<ele>261</ele>
						<time>2026-06-07T15:39:27Z</time>
					</trkpt>
					<trkpt lat="49.135000" lon="3.877080">
						<ele>263</ele>
						<time>2026-06-07T15:41:34Z</time>
					</trkpt>
					<trkpt lat="49.134780" lon="3.877170">
						<ele>262</ele>
						<time>2026-06-07T15:41:45Z</time>
					</trkpt>
					<trkpt lat="49.135000" lon="3.877080">
						<ele>263</ele>
						<time>2026-06-07T15:41:56Z</time>
					</trkpt>
					<trkpt lat="49.134610" lon="3.876800">
						<ele>261</ele>
						<time>2026-06-07T15:42:18Z</time>
					</trkpt>
					<trkpt lat="49.134130" lon="3.876340">
						<ele>259</ele>
						<time>2026-06-07T15:42:46Z</time>
					</trkpt>
					<trkpt lat="49.133860" lon="3.875600">
						<ele>258</ele>
						<time>2026-06-07T15:43:14Z</time>
					</trkpt>
					<trkpt lat="49.133790" lon="3.875430">
						<ele>257</ele>
						<time>2026-06-07T15:43:21Z</time>
					</trkpt>
					<trkpt lat="49.133640" lon="3.875110">
						<ele>257</ele>
						<time>2026-06-07T15:43:34Z</time>
					</trkpt>
					<trkpt lat="49.133580" lon="3.875020">
						<ele>256</ele>
						<time>2026-06-07T15:43:38Z</time>
					</trkpt>
					<trkpt lat="49.133150" lon="3.874590">
						<ele>256</ele>
						<time>2026-06-07T15:44:03Z</time>
					</trkpt>
					<trkpt lat="49.132830" lon="3.874300">
						<ele>256</ele>
						<time>2026-06-07T15:44:22Z</time>
					</trkpt>
					<trkpt lat="49.132500" lon="3.873890">
						<ele>255</ele>
						<time>2026-06-07T15:44:43Z</time>
					</trkpt>
					<trkpt lat="49.132310" lon="3.873580">
						<ele>254</ele>
						<time>2026-06-07T15:44:57Z</time>
					</trkpt>
					<trkpt lat="49.132200" lon="3.872700">
						<ele>250</ele>
						<time>2026-06-07T15:45:27Z</time>
					</trkpt>
					<trkpt lat="49.131980" lon="3.872260">
						<ele>247</ele>
						<time>2026-06-07T15:45:45Z</time>
					</trkpt>
					<trkpt lat="49.131970" lon="3.872120">
						<ele>246</ele>
						<time>2026-06-07T15:45:49Z</time>
					</trkpt>
					<trkpt lat="49.131940" lon="3.871890">
						<ele>245</ele>
						<time>2026-06-07T15:45:57Z</time>
					</trkpt>
					<trkpt lat="49.132040" lon="3.871160">
						<ele>241</ele>
						<time>2026-06-07T15:46:21Z</time>
					</trkpt>
					<trkpt lat="49.132010" lon="3.870910">
						<ele>239</ele>
						<time>2026-06-07T15:46:30Z</time>
					</trkpt>
					<trkpt lat="49.132040" lon="3.870750">
						<ele>238</ele>
						<time>2026-06-07T15:46:35Z</time>
					</trkpt>
					<trkpt lat="49.132030" lon="3.870140">
						<ele>232</ele>
						<time>2026-06-07T15:46:55Z</time>
					</trkpt>
					<trkpt lat="49.131990" lon="3.869480">
						<ele>226</ele>
						<time>2026-06-07T15:47:17Z</time>
					</trkpt>
					<trkpt lat="49.132050" lon="3.868990">
						<ele>222</ele>
						<time>2026-06-07T15:47:33Z</time>
					</trkpt>
					<trkpt lat="49.132070" lon="3.867330">
						<ele>205</ele>
						<time>2026-06-07T15:48:28Z</time>
					</trkpt>
					<trkpt lat="49.132120" lon="3.867250">
						<ele>203</ele>
						<time>2026-06-07T15:48:31Z</time>
					</trkpt>
					<trkpt lat="49.132210" lon="3.867180">
						<ele>202</ele>
						<time>2026-06-07T15:48:36Z</time>
					</trkpt>
					<trkpt lat="49.132140" lon="3.867140">
						<ele>202</ele>
						<time>2026-06-07T15:48:40Z</time>
					</trkpt>
					<trkpt lat="49.131510" lon="3.867370">
						<ele>210</ele>
						<time>2026-06-07T15:49:12Z</time>
					</trkpt>
					<trkpt lat="49.130950" lon="3.868200">
						<ele>221</ele>
						<time>2026-06-07T15:49:51Z</time>
					</trkpt>
					<trkpt lat="49.130620" lon="3.868150">
						<ele>220</ele>
						<time>2026-06-07T15:50:08Z</time>
					</trkpt>
					<trkpt lat="49.130370" lon="3.868140">
						<ele>219</ele>
						<time>2026-06-07T15:50:21Z</time>
					</trkpt>
					<trkpt lat="49.130020" lon="3.868270">
						<ele>218</ele>
						<time>2026-06-07T15:50:39Z</time>
					</trkpt>
					<trkpt lat="49.129880" lon="3.868290">
						<ele>220</ele>
						<time>2026-06-07T15:50:46Z</time>
					</trkpt>
					<trkpt lat="49.129380" lon="3.868440">
						<ele>226</ele>
						<time>2026-06-07T15:51:11Z</time>
					</trkpt>
					<trkpt lat="49.129300" lon="3.868570">
						<ele>228</ele>
						<time>2026-06-07T15:51:17Z</time>
					</trkpt>
					<trkpt lat="49.129100" lon="3.868900">
						<ele>231</ele>
						<time>2026-06-07T15:51:32Z</time>
					</trkpt>
					<trkpt lat="49.128830" lon="3.869530">
						<ele>237</ele>
						<time>2026-06-07T15:51:56Z</time>
					</trkpt>
					<trkpt lat="49.128710" lon="3.869890">
						<ele>240</ele>
						<time>2026-06-07T15:52:10Z</time>
					</trkpt>
					<trkpt lat="49.128200" lon="3.870280">
						<ele>244</ele>
						<time>2026-06-07T15:52:38Z</time>
					</trkpt>
					<trkpt lat="49.128100" lon="3.870580">
						<ele>246</ele>
						<time>2026-06-07T15:52:49Z</time>
					</trkpt>
					<trkpt lat="49.127850" lon="3.871590">
						<ele>248</ele>
						<time>2026-06-07T15:53:25Z</time>
					</trkpt>
					<trkpt lat="49.127650" lon="3.871930">
						<ele>247</ele>
						<time>2026-06-07T15:53:39Z</time>
					</trkpt>
					<trkpt lat="49.127520" lon="3.872080">
						<ele>246</ele>
						<time>2026-06-07T15:53:48Z</time>
					</trkpt>
					<trkpt lat="49.127420" lon="3.872160">
						<ele>246</ele>
						<time>2026-06-07T15:53:53Z</time>
					</trkpt>
					<trkpt lat="49.127320" lon="3.872070">
						<ele>246</ele>
						<time>2026-06-07T15:53:59Z</time>
					</trkpt>
					<trkpt lat="49.127190" lon="3.871810">
						<ele>247</ele>
						<time>2026-06-07T15:54:10Z</time>
					</trkpt>
					<trkpt lat="49.126800" lon="3.871270">
						<ele>249</ele>
						<time>2026-06-07T15:54:36Z</time>
					</trkpt>
					<trkpt lat="49.126560" lon="3.871030">
						<ele>250</ele>
						<time>2026-06-07T15:54:51Z</time>
					</trkpt>
					<trkpt lat="49.125150" lon="3.870040">
						<ele>252</ele>
						<time>2026-06-07T15:56:08Z</time>
					</trkpt>
					<trkpt lat="49.124620" lon="3.869830">
						<ele>252</ele>
						<time>2026-06-07T15:56:36Z</time>
					</trkpt>
					<trkpt lat="49.124400" lon="3.869800">
						<ele>253</ele>
						<time>2026-06-07T15:56:47Z</time>
					</trkpt>
					<trkpt lat="49.124170" lon="3.869770">
						<ele>253</ele>
						<time>2026-06-07T15:56:58Z</time>
					</trkpt>
					<trkpt lat="49.123950" lon="3.869660">
						<ele>254</ele>
						<time>2026-06-07T15:57:10Z</time>
					</trkpt>
					<trkpt lat="49.123620" lon="3.869550">
						<ele>254</ele>
						<time>2026-06-07T15:57:27Z</time>
					</trkpt>
					<trkpt lat="49.123290" lon="3.869460">
						<ele>255</ele>
						<time>2026-06-07T15:57:43Z</time>
					</trkpt>
					<trkpt lat="49.123210" lon="3.869440">
						<ele>254</ele>
						<time>2026-06-07T15:57:47Z</time>
					</trkpt>
					<trkpt lat="49.122840" lon="3.869430">
						<ele>252</ele>
						<time>2026-06-07T15:58:06Z</time>
					</trkpt>
					<trkpt lat="49.122590" lon="3.869580">
						<ele>252</ele>
						<time>2026-06-07T15:58:19Z</time>
					</trkpt>
					<trkpt lat="49.122380" lon="3.869640">
						<ele>252</ele>
						<time>2026-06-07T15:58:30Z</time>
					</trkpt>
					<trkpt lat="49.122330" lon="3.869660">
						<ele>252</ele>
						<time>2026-06-07T15:58:33Z</time>
					</trkpt>
					<trkpt lat="49.122140" lon="3.869620">
						<ele>252</ele>
						<time>2026-06-07T15:58:42Z</time>
					</trkpt>
					<trkpt lat="49.121930" lon="3.869430">
						<ele>251</ele>
						<time>2026-06-07T15:58:55Z</time>
					</trkpt>
					<trkpt lat="49.121650" lon="3.869300">
						<ele>250</ele>
						<time>2026-06-07T15:59:09Z</time>
					</trkpt>
					<trkpt lat="49.121560" lon="3.869220">
						<ele>250</ele>
						<time>2026-06-07T15:59:14Z</time>
					</trkpt>
					<trkpt lat="49.121390" lon="3.869080">
						<ele>250</ele>
						<time>2026-06-07T15:59:24Z</time>
					</trkpt>
					<trkpt lat="49.121160" lon="3.868820">
						<ele>249</ele>
						<time>2026-06-07T15:59:38Z</time>
					</trkpt>
					<trkpt lat="49.120890" lon="3.868530">
						<ele>249</ele>
						<time>2026-06-07T15:59:55Z</time>
					</trkpt>
					<trkpt lat="49.120620" lon="3.868360">
						<ele>249</ele>
						<time>2026-06-07T16:00:09Z</time>
					</trkpt>
					<trkpt lat="49.120320" lon="3.868160">
						<ele>248</ele>
						<time>2026-06-07T16:00:26Z</time>
					</trkpt>
					<trkpt lat="49.120330" lon="3.868120">
						<ele>248</ele>
						<time>2026-06-07T16:00:27Z</time>
					</trkpt>
					<trkpt lat="49.120400" lon="3.867940">
						<ele>248</ele>
						<time>2026-06-07T16:00:34Z</time>
					</trkpt>
					<trkpt lat="49.120720" lon="3.866290">
						<ele>245</ele>
						<time>2026-06-07T16:01:30Z</time>
					</trkpt>
					<trkpt lat="49.120800" lon="3.865630">
						<ele>245</ele>
						<time>2026-06-07T16:01:52Z</time>
					</trkpt>
					<trkpt lat="49.120890" lon="3.865080">
						<ele>245</ele>
						<time>2026-06-07T16:02:11Z</time>
					</trkpt>
					<trkpt lat="49.121050" lon="3.864350">
						<ele>242</ele>
						<time>2026-06-07T16:02:36Z</time>
					</trkpt>
					<trkpt lat="49.121060" lon="3.864330">
						<ele>242</ele>
						<time>2026-06-07T16:02:37Z</time>
					</trkpt>
					<trkpt lat="49.121790" lon="3.863110">
						<ele>240</ele>
						<time>2026-06-07T16:03:31Z</time>
					</trkpt>
					<trkpt lat="49.122290" lon="3.862320">
						<ele>238</ele>
						<time>2026-06-07T16:04:07Z</time>
					</trkpt>
					<trkpt lat="49.122770" lon="3.861450">
						<ele>235</ele>
						<time>2026-06-07T16:04:44Z</time>
					</trkpt>
					<trkpt lat="49.123140" lon="3.860480">
						<ele>232</ele>
						<time>2026-06-07T16:05:21Z</time>
					</trkpt>
					<trkpt lat="49.123390" lon="3.860050">
						<ele>232</ele>
						<time>2026-06-07T16:05:40Z</time>
					</trkpt>
					<trkpt lat="49.124550" lon="3.859010">
						<ele>230</ele>
						<time>2026-06-07T16:06:47Z</time>
					</trkpt>
					<trkpt lat="49.125480" lon="3.858380">
						<ele>223</ele>
						<time>2026-06-07T16:07:38Z</time>
					</trkpt>
					<trkpt lat="49.125950" lon="3.858270">
						<ele>221</ele>
						<time>2026-06-07T16:08:02Z</time>
					</trkpt>
					<trkpt lat="49.126360" lon="3.858250">
						<ele>219</ele>
						<time>2026-06-07T16:08:23Z</time>
					</trkpt>
					<trkpt lat="49.127010" lon="3.857910">
						<ele>212</ele>
						<time>2026-06-07T16:08:57Z</time>
					</trkpt>
					<trkpt lat="49.127620" lon="3.857700">
						<ele>206</ele>
						<time>2026-06-07T16:09:28Z</time>
					</trkpt>
					<trkpt lat="49.129760" lon="3.858000">
						<ele>196</ele>
						<time>2026-06-07T16:11:16Z</time>
					</trkpt>
					<trkpt lat="49.130690" lon="3.857670">
						<ele>191</ele>
						<time>2026-06-07T16:12:04Z</time>
					</trkpt>
					<trkpt lat="49.130940" lon="3.857580">
						<ele>190</ele>
						<time>2026-06-07T16:12:16Z</time>
					</trkpt>
					<trkpt lat="49.131470" lon="3.859140">
						<ele>187</ele>
						<time>2026-06-07T16:13:14Z</time>
					</trkpt>
					<trkpt lat="49.131840" lon="3.859680">
						<ele>181</ele>
						<time>2026-06-07T16:13:40Z</time>
					</trkpt>
					<trkpt lat="49.132830" lon="3.860720">
						<ele>169</ele>
						<time>2026-06-07T16:14:40Z</time>
					</trkpt>
					<trkpt lat="49.133130" lon="3.861000">
						<ele>168</ele>
						<time>2026-06-07T16:14:57Z</time>
					</trkpt>
					<trkpt lat="49.133480" lon="3.861070">
						<ele>167</ele>
						<time>2026-06-07T16:15:15Z</time>
					</trkpt>
					<trkpt lat="49.133740" lon="3.860970">
						<ele>166</ele>
						<time>2026-06-07T16:15:28Z</time>
					</trkpt>
					<trkpt lat="49.133970" lon="3.861170">
						<ele>166</ele>
						<time>2026-06-07T16:15:42Z</time>
					</trkpt>
					<trkpt lat="49.134200" lon="3.861400">
						<ele>165</ele>
						<time>2026-06-07T16:15:55Z</time>
					</trkpt>
					<trkpt lat="49.134420" lon="3.862000">
						<ele>168</ele>
						<time>2026-06-07T16:16:18Z</time>
					</trkpt>
					<trkpt lat="49.134500" lon="3.862210">
						<ele>169</ele>
						<time>2026-06-07T16:16:26Z</time>
					</trkpt>
					<trkpt lat="49.134830" lon="3.862530">
						<ele>173</ele>
						<time>2026-06-07T16:16:45Z</time>
					</trkpt>
					<trkpt lat="49.135060" lon="3.862670">
						<ele>175</ele>
						<time>2026-06-07T16:16:58Z</time>
					</trkpt>
					<trkpt lat="49.135180" lon="3.863040">
						<ele>178</ele>
						<time>2026-06-07T16:17:11Z</time>
					</trkpt>
					<trkpt lat="49.135060" lon="3.863220">
						<ele>178</ele>
						<time>2026-06-07T16:17:20Z</time>
					</trkpt>
					<trkpt lat="49.135050" lon="3.863560">
						<ele>179</ele>
						<time>2026-06-07T16:17:31Z</time>
					</trkpt>
					<trkpt lat="49.135170" lon="3.863800">
						<ele>180</ele>
						<time>2026-06-07T16:17:41Z</time>
					</trkpt>
					<trkpt lat="49.135270" lon="3.863740">
						<ele>181</ele>
						<time>2026-06-07T16:17:46Z</time>
					</trkpt>
					<trkpt lat="49.135320" lon="3.863630">
						<ele>181</ele>
						<time>2026-06-07T16:17:51Z</time>
					</trkpt>
					<trkpt lat="49.135550" lon="3.863660">
						<ele>184</ele>
						<time>2026-06-07T16:18:02Z</time>
					</trkpt>
					<trkpt lat="49.135690" lon="3.863790">
						<ele>185</ele>
						<time>2026-06-07T16:18:10Z</time>
					</trkpt>
					<trkpt lat="49.135820" lon="3.863890">
						<ele>187</ele>
						<time>2026-06-07T16:18:18Z</time>
					</trkpt>
					<trkpt lat="49.136000" lon="3.863690">
						<ele>189</ele>
						<time>2026-06-07T16:18:29Z</time>
					</trkpt>
					<trkpt lat="49.136080" lon="3.863540">
						<ele>190</ele>
						<time>2026-06-07T16:18:35Z</time>
					</trkpt>
					<trkpt lat="49.136200" lon="3.863590">
						<ele>193</ele>
						<time>2026-06-07T16:18:41Z</time>
					</trkpt>
					<trkpt lat="49.136290" lon="3.863860">
						<ele>195</ele>
						<time>2026-06-07T16:18:51Z</time>
					</trkpt>
					<trkpt lat="49.136360" lon="3.863930">
						<ele>197</ele>
						<time>2026-06-07T16:18:55Z</time>
					</trkpt>
					<trkpt lat="49.136480" lon="3.863970">
						<ele>199</ele>
						<time>2026-06-07T16:19:02Z</time>
					</trkpt>
					<trkpt lat="49.136560" lon="3.864070">
						<ele>201</ele>
						<time>2026-06-07T16:19:07Z</time>
					</trkpt>
					<trkpt lat="49.136680" lon="3.864030">
						<ele>203</ele>
						<time>2026-06-07T16:19:13Z</time>
					</trkpt>
					<trkpt lat="49.136820" lon="3.863920">
						<ele>205</ele>
						<time>2026-06-07T16:19:21Z</time>
					</trkpt>
					<trkpt lat="49.137010" lon="3.863860">
						<ele>207</ele>
						<time>2026-06-07T16:19:30Z</time>
					</trkpt>
					<trkpt lat="49.137130" lon="3.864070">
						<ele>210</ele>
						<time>2026-06-07T16:19:40Z</time>
					</trkpt>
					<trkpt lat="49.137260" lon="3.864310">
						<ele>212</ele>
						<time>2026-06-07T16:19:50Z</time>
					</trkpt>
					<trkpt lat="49.137400" lon="3.864180">
						<ele>215</ele>
						<time>2026-06-07T16:19:58Z</time>
					</trkpt>
					<trkpt lat="49.137620" lon="3.863330">
						<ele>215</ele>
						<time>2026-06-07T16:20:28Z</time>
					</trkpt>
					<trkpt lat="49.138020" lon="3.862090">
						<ele>220</ele>
						<time>2026-06-07T16:21:13Z</time>
					</trkpt>
					<trkpt lat="49.138040" lon="3.862020">
						<ele>220</ele>
						<time>2026-06-07T16:21:16Z</time>
					</trkpt>
					<trkpt lat="49.138330" lon="3.861590">
						<ele>223</ele>
						<time>2026-06-07T16:21:36Z</time>
					</trkpt>
					<trkpt lat="49.138390" lon="3.861540">
						<ele>224</ele>
						<time>2026-06-07T16:21:39Z</time>
					</trkpt>
					<trkpt lat="49.138410" lon="3.861520">
						<ele>224</ele>
						<time>2026-06-07T16:21:41Z</time>
					</trkpt>
					<trkpt lat="49.139000" lon="3.861050">
						<ele>229</ele>
						<time>2026-06-07T16:22:14Z</time>
					</trkpt>
					<trkpt lat="49.139130" lon="3.860880">
						<ele>230</ele>
						<time>2026-06-07T16:22:22Z</time>
					</trkpt>
					<trkpt lat="49.139200" lon="3.860740">
						<ele>230</ele>
						<time>2026-06-07T16:22:28Z</time>
					</trkpt>
					<trkpt lat="49.139350" lon="3.860450">
						<ele>230</ele>
						<time>2026-06-07T16:22:40Z</time>
					</trkpt>
					<trkpt lat="49.139680" lon="3.859780">
						<ele>230</ele>
						<time>2026-06-07T16:23:08Z</time>
					</trkpt>
					<trkpt lat="49.139940" lon="3.859760">
						<ele>235</ele>
						<time>2026-06-07T16:23:21Z</time>
					</trkpt>
					<trkpt lat="49.140110" lon="3.859660">
						<ele>236</ele>
						<time>2026-06-07T16:23:30Z</time>
					</trkpt>
					<trkpt lat="49.140200" lon="3.859440">
						<ele>235</ele>
						<time>2026-06-07T16:23:38Z</time>
					</trkpt>
					<trkpt lat="49.140400" lon="3.859370">
						<ele>236</ele>
						<time>2026-06-07T16:23:49Z</time>
					</trkpt>
					<trkpt lat="49.140500" lon="3.859380">
						<ele>238</ele>
						<time>2026-06-07T16:23:54Z</time>
					</trkpt>
					<trkpt lat="49.140600" lon="3.859040">
						<ele>235</ele>
						<time>2026-06-07T16:24:06Z</time>
					</trkpt>
					<trkpt lat="49.141150" lon="3.858970">
						<ele>240</ele>
						<time>2026-06-07T16:24:33Z</time>
					</trkpt>
					<trkpt lat="49.141300" lon="3.858820">
						<ele>239</ele>
						<time>2026-06-07T16:24:42Z</time>
					</trkpt>
					<trkpt lat="49.141410" lon="3.858640">
						<ele>239</ele>
						<time>2026-06-07T16:24:50Z</time>
					</trkpt>
					<trkpt lat="49.141600" lon="3.858580">
						<ele>240</ele>
						<time>2026-06-07T16:25:00Z</time>
					</trkpt>
					<trkpt lat="49.141840" lon="3.858560">
						<ele>242</ele>
						<time>2026-06-07T16:25:12Z</time>
					</trkpt>
					<trkpt lat="49.141910" lon="3.858360">
						<ele>242</ele>
						<time>2026-06-07T16:25:20Z</time>
					</trkpt>
					<trkpt lat="49.141860" lon="3.858080">
						<ele>238</ele>
						<time>2026-06-07T16:25:29Z</time>
					</trkpt>
					<trkpt lat="49.141780" lon="3.857920">
						<ele>235</ele>
						<time>2026-06-07T16:25:36Z</time>
					</trkpt>
					<trkpt lat="49.141790" lon="3.857810">
						<ele>233</ele>
						<time>2026-06-07T16:25:39Z</time>
					</trkpt>
					<trkpt lat="49.141860" lon="3.857780">
						<ele>234</ele>
						<time>2026-06-07T16:25:43Z</time>
					</trkpt>
					<trkpt lat="49.141980" lon="3.857930">
						<ele>237</ele>
						<time>2026-06-07T16:25:51Z</time>
					</trkpt>
					<trkpt lat="49.142080" lon="3.858070">
						<ele>240</ele>
						<time>2026-06-07T16:25:58Z</time>
					</trkpt>
					<trkpt lat="49.142110" lon="3.858230">
						<ele>242</ele>
						<time>2026-06-07T16:26:03Z</time>
					</trkpt>
					<trkpt lat="49.142200" lon="3.858380">
						<ele>244</ele>
						<time>2026-06-07T16:26:10Z</time>
					</trkpt>
					<trkpt lat="49.142260" lon="3.858340">
						<ele>245</ele>
						<time>2026-06-07T16:26:13Z</time>
					</trkpt>
					<trkpt lat="49.142260" lon="3.858250">
						<ele>244</ele>
						<time>2026-06-07T16:26:16Z</time>
					</trkpt>
					<trkpt lat="49.142180" lon="3.858120">
						<ele>242</ele>
						<time>2026-06-07T16:26:22Z</time>
					</trkpt>
					<trkpt lat="49.142170" lon="3.857930">
						<ele>240</ele>
						<time>2026-06-07T16:26:28Z</time>
					</trkpt>
					<trkpt lat="49.142250" lon="3.857620">
						<ele>239</ele>
						<time>2026-06-07T16:26:39Z</time>
					</trkpt>
					<trkpt lat="49.142240" lon="3.857390">
						<ele>237</ele>
						<time>2026-06-07T16:26:46Z</time>
					</trkpt>
					<trkpt lat="49.142270" lon="3.857160">
						<ele>236</ele>
						<time>2026-06-07T16:26:54Z</time>
					</trkpt>
					<trkpt lat="49.142370" lon="3.856820">
						<ele>236</ele>
						<time>2026-06-07T16:27:06Z</time>
					</trkpt>
					<trkpt lat="49.142430" lon="3.856290">
						<ele>234</ele>
						<time>2026-06-07T16:27:24Z</time>
					</trkpt>
					<trkpt lat="49.142630" lon="3.856100">
						<ele>235</ele>
						<time>2026-06-07T16:27:36Z</time>
					</trkpt>
					<trkpt lat="49.142950" lon="3.855440">
						<ele>235</ele>
						<time>2026-06-07T16:28:03Z</time>
					</trkpt>
					<trkpt lat="49.143120" lon="3.854980">
						<ele>236</ele>
						<time>2026-06-07T16:28:20Z</time>
					</trkpt>
					<trkpt lat="49.143120" lon="3.854200">
						<ele>238</ele>
						<time>2026-06-07T16:28:45Z</time>
					</trkpt>
					<trkpt lat="49.143050" lon="3.853270">
						<ele>241</ele>
						<time>2026-06-07T16:29:16Z</time>
					</trkpt>
					<trkpt lat="49.143030" lon="3.852520">
						<ele>243</ele>
						<time>2026-06-07T16:29:41Z</time>
					</trkpt>
					<trkpt lat="49.142970" lon="3.851750">
						<ele>242</ele>
						<time>2026-06-07T16:30:06Z</time>
					</trkpt>
					<trkpt lat="49.142880" lon="3.850770">
						<ele>240</ele>
						<time>2026-06-07T16:30:38Z</time>
					</trkpt>
					<trkpt lat="49.142670" lon="3.850680">
						<ele>238</ele>
						<time>2026-06-07T16:30:49Z</time>
					</trkpt>
					<trkpt lat="49.142620" lon="3.850480">
						<ele>237</ele>
						<time>2026-06-07T16:30:56Z</time>
					</trkpt>
					<trkpt lat="49.142420" lon="3.850120">
						<ele>236</ele>
						<time>2026-06-07T16:31:12Z</time>
					</trkpt>
					<trkpt lat="49.142400" lon="3.850070">
						<ele>236</ele>
						<time>2026-06-07T16:31:14Z</time>
					</trkpt>
					<trkpt lat="49.142360" lon="3.849870">
						<ele>236</ele>
						<time>2026-06-07T16:31:21Z</time>
					</trkpt>
					<trkpt lat="49.142340" lon="3.849710">
						<ele>236</ele>
						<time>2026-06-07T16:31:26Z</time>
					</trkpt>
					<trkpt lat="49.142250" lon="3.848560">
						<ele>237</ele>
						<time>2026-06-07T16:32:04Z</time>
					</trkpt>
					<trkpt lat="49.142220" lon="3.846760">
						<ele>240</ele>
						<time>2026-06-07T16:33:03Z</time>
					</trkpt>
					<trkpt lat="49.142200" lon="3.846650">
						<ele>240</ele>
						<time>2026-06-07T16:33:06Z</time>
					</trkpt>
					<trkpt lat="49.142100" lon="3.845870">
						<ele>241</ele>
						<time>2026-06-07T16:33:33Z</time>
					</trkpt>
					<trkpt lat="49.142060" lon="3.845590">
						<ele>242</ele>
						<time>2026-06-07T16:33:42Z</time>
					</trkpt>
					<trkpt lat="49.142070" lon="3.845500">
						<ele>242</ele>
						<time>2026-06-07T16:33:45Z</time>
					</trkpt>
					<trkpt lat="49.142150" lon="3.844860">
						<ele>242</ele>
						<time>2026-06-07T16:34:06Z</time>
					</trkpt>
					<trkpt lat="49.142330" lon="3.844090">
						<ele>243</ele>
						<time>2026-06-07T16:34:33Z</time>
					</trkpt>
					<trkpt lat="49.142380" lon="3.843830">
						<ele>243</ele>
						<time>2026-06-07T16:34:42Z</time>
					</trkpt>
					<trkpt lat="49.142510" lon="3.843160">
						<ele>245</ele>
						<time>2026-06-07T16:35:05Z</time>
					</trkpt>
					<trkpt lat="49.142570" lon="3.842870">
						<ele>245</ele>
						<time>2026-06-07T16:35:15Z</time>
					</trkpt>
					<trkpt lat="49.142700" lon="3.842110">
						<ele>245</ele>
						<time>2026-06-07T16:35:40Z</time>
					</trkpt>
					<trkpt lat="49.142700" lon="3.842090">
						<ele>245</ele>
						<time>2026-06-07T16:35:41Z</time>
					</trkpt>
					<trkpt lat="49.142860" lon="3.842110">
						<ele>245</ele>
						<time>2026-06-07T16:35:49Z</time>
					</trkpt>
					<trkpt lat="49.142980" lon="3.841200">
						<ele>245</ele>
						<time>2026-06-07T16:36:19Z</time>
					</trkpt>
					<trkpt lat="49.142970" lon="3.841200">
						<ele>245</ele>
						<time>2026-06-07T16:36:20Z</time>
					</trkpt>
					<trkpt lat="49.142810" lon="3.840870">
						<ele>243</ele>
						<time>2026-06-07T16:36:33Z</time>
					</trkpt>
					<trkpt lat="49.142910" lon="3.840480">
						<ele>243</ele>
						<time>2026-06-07T16:36:47Z</time>
					</trkpt>
					<trkpt lat="49.143030" lon="3.840210">
						<ele>242</ele>
						<time>2026-06-07T16:36:58Z</time>
					</trkpt>
					<trkpt lat="49.143230" lon="3.839760">
						<ele>242</ele>
						<time>2026-06-07T16:37:16Z</time>
					</trkpt>
					<trkpt lat="49.143380" lon="3.839440">
						<ele>242</ele>
						<time>2026-06-07T16:37:29Z</time>
					</trkpt>
					<trkpt lat="49.143590" lon="3.838920">
						<ele>242</ele>
						<time>2026-06-07T16:37:49Z</time>
					</trkpt>
					<trkpt lat="49.143740" lon="3.838370">
						<ele>242</ele>
						<time>2026-06-07T16:38:08Z</time>
					</trkpt>
					<trkpt lat="49.143790" lon="3.838070">
						<ele>242</ele>
						<time>2026-06-07T16:38:18Z</time>
					</trkpt>
					<trkpt lat="49.143790" lon="3.837680">
						<ele>242</ele>
						<time>2026-06-07T16:38:31Z</time>
					</trkpt>
					<trkpt lat="49.143960" lon="3.836350">
						<ele>242</ele>
						<time>2026-06-07T16:39:15Z</time>
					</trkpt>
					<trkpt lat="49.144320" lon="3.833580">
						<ele>241</ele>
						<time>2026-06-07T16:40:48Z</time>
					</trkpt>
					<trkpt lat="49.144600" lon="3.831580">
						<ele>242</ele>
						<time>2026-06-07T16:41:55Z</time>
					</trkpt>
					<trkpt lat="49.144660" lon="3.831020">
						<ele>245</ele>
						<time>2026-06-07T16:42:13Z</time>
					</trkpt>
					<trkpt lat="49.145600" lon="3.830550">
						<ele>253</ele>
						<time>2026-06-07T16:43:03Z</time>
					</trkpt>
					<trkpt lat="49.146600" lon="3.830080">
						<ele>250</ele>
						<time>2026-06-07T16:43:55Z</time>
					</trkpt>
					<trkpt lat="49.146960" lon="3.829900">
						<ele>249</ele>
						<time>2026-06-07T16:44:14Z</time>
					</trkpt>
					<trkpt lat="49.147650" lon="3.829770">
						<ele>246</ele>
						<time>2026-06-07T16:44:49Z</time>
					</trkpt>
					<trkpt lat="49.148330" lon="3.829650">
						<ele>243</ele>
						<time>2026-06-07T16:45:23Z</time>
					</trkpt>
					<trkpt lat="49.148690" lon="3.829650">
						<ele>242</ele>
						<time>2026-06-07T16:45:41Z</time>
					</trkpt>
					<trkpt lat="49.149290" lon="3.829940">
						<ele>241</ele>
						<time>2026-06-07T16:46:13Z</time>
					</trkpt>
					<trkpt lat="49.149910" lon="3.830250">
						<ele>234</ele>
						<time>2026-06-07T16:46:45Z</time>
					</trkpt>
					<trkpt lat="49.150140" lon="3.830460">
						<ele>233</ele>
						<time>2026-06-07T16:46:59Z</time>
					</trkpt>
					<trkpt lat="49.150360" lon="3.830880">
						<ele>232</ele>
						<time>2026-06-07T16:47:16Z</time>
					</trkpt>
					<trkpt lat="49.150430" lon="3.831030">
						<ele>231</ele>
						<time>2026-06-07T16:47:22Z</time>
					</trkpt>
					<trkpt lat="49.150760" lon="3.831090">
						<ele>228</ele>
						<time>2026-06-07T16:47:39Z</time>
					</trkpt>
					<trkpt lat="49.151170" lon="3.831200">
						<ele>226</ele>
						<time>2026-06-07T16:48:00Z</time>
					</trkpt>
					<trkpt lat="49.151590" lon="3.831320">
						<ele>224</ele>
						<time>2026-06-07T16:48:21Z</time>
					</trkpt>
					<trkpt lat="49.151910" lon="3.831370">
						<ele>222</ele>
						<time>2026-06-07T16:48:37Z</time>
					</trkpt>
					<trkpt lat="49.152110" lon="3.831310">
						<ele>221</ele>
						<time>2026-06-07T16:48:47Z</time>
					</trkpt>
					<trkpt lat="49.152080" lon="3.831290">
						<ele>221</ele>
						<time>2026-06-07T16:48:49Z</time>
					</trkpt>
					<trkpt lat="49.152890" lon="3.832570">
						<ele>225</ele>
						<time>2026-06-07T16:49:47Z</time>
					</trkpt>
					<trkpt lat="49.153160" lon="3.833050">
						<ele>226</ele>
						<time>2026-06-07T16:50:08Z</time>
					</trkpt>
					<trkpt lat="49.153580" lon="3.833690">
						<ele>227</ele>
						<time>2026-06-07T16:50:38Z</time>
					</trkpt>
					<trkpt lat="49.153710" lon="3.833870">
						<ele>227</ele>
						<time>2026-06-07T16:50:47Z</time>
					</trkpt>
					<trkpt lat="49.153950" lon="3.834210">
						<ele>227</ele>
						<time>2026-06-07T16:51:03Z</time>
					</trkpt>
					<trkpt lat="49.154750" lon="3.836000">
						<ele>224</ele>
						<time>2026-06-07T16:52:14Z</time>
					</trkpt>
					<trkpt lat="49.154720" lon="3.836020">
						<ele>224</ele>
						<time>2026-06-07T16:52:16Z</time>
					</trkpt>
					<trkpt lat="49.154750" lon="3.836000">
						<ele>224</ele>
						<time>2026-06-07T16:52:17Z</time>
					</trkpt>
					<trkpt lat="49.154830" lon="3.835920">
						<ele>224</ele>
						<time>2026-06-07T16:52:22Z</time>
					</trkpt>
					<trkpt lat="49.155100" lon="3.835600">
						<ele>222</ele>
						<time>2026-06-07T16:52:39Z</time>
					</trkpt>
					<trkpt lat="49.155390" lon="3.835200">
						<ele>220</ele>
						<time>2026-06-07T16:52:59Z</time>
					</trkpt>
					<trkpt lat="49.155550" lon="3.835430">
						<ele>219</ele>
						<time>2026-06-07T16:53:10Z</time>
					</trkpt>
					<trkpt lat="49.155820" lon="3.835730">
						<ele>219</ele>
						<time>2026-06-07T16:53:26Z</time>
					</trkpt>
					<trkpt lat="49.156260" lon="3.836200">
						<ele>216</ele>
						<time>2026-06-07T16:53:53Z</time>
					</trkpt>
					<trkpt lat="49.156530" lon="3.836520">
						<ele>215</ele>
						<time>2026-06-07T16:54:10Z</time>
					</trkpt>
					<trkpt lat="49.156720" lon="3.836730">
						<ele>215</ele>
						<time>2026-06-07T16:54:22Z</time>
					</trkpt>
					<trkpt lat="49.157000" lon="3.837170">
						<ele>212</ele>
						<time>2026-06-07T16:54:42Z</time>
					</trkpt>
					<trkpt lat="49.157150" lon="3.837470">
						<ele>211</ele>
						<time>2026-06-07T16:54:54Z</time>
					</trkpt>
					<trkpt lat="49.157230" lon="3.837740">
						<ele>209</ele>
						<time>2026-06-07T16:55:04Z</time>
					</trkpt>
					<trkpt lat="49.157270" lon="3.837880">
						<ele>209</ele>
						<time>2026-06-07T16:55:09Z</time>
					</trkpt>
					<trkpt lat="49.158170" lon="3.837840">
						<ele>200</ele>
						<time>2026-06-07T16:55:54Z</time>
					</trkpt>
					<trkpt lat="49.158640" lon="3.837890">
						<ele>196</ele>
						<time>2026-06-07T16:56:18Z</time>
					</trkpt>
					<trkpt lat="49.159160" lon="3.838010">
						<ele>192</ele>
						<time>2026-06-07T16:56:44Z</time>
					</trkpt>
					<trkpt lat="49.159480" lon="3.838080">
						<ele>190</ele>
						<time>2026-06-07T16:57:00Z</time>
					</trkpt>
					<trkpt lat="49.160290" lon="3.838060">
						<ele>187</ele>
						<time>2026-06-07T16:57:41Z</time>
					</trkpt>
					<trkpt lat="49.160750" lon="3.838050">
						<ele>186</ele>
						<time>2026-06-07T16:58:04Z</time>
					</trkpt>
					<trkpt lat="49.161280" lon="3.837950">
						<ele>183</ele>
						<time>2026-06-07T16:58:31Z</time>
					</trkpt>
					<trkpt lat="49.162180" lon="3.837730">
						<ele>179</ele>
						<time>2026-06-07T16:59:16Z</time>
					</trkpt>
					<trkpt lat="49.162220" lon="3.837720">
						<ele>178</ele>
						<time>2026-06-07T16:59:18Z</time>
					</trkpt>
					<trkpt lat="49.163030" lon="3.839290">
						<ele>162</ele>
						<time>2026-06-07T17:00:24Z</time>
					</trkpt>
					<trkpt lat="49.163900" lon="3.840990">
						<ele>151</ele>
						<time>2026-06-07T17:01:34Z</time>
					</trkpt>
					<trkpt lat="49.163980" lon="3.841150">
						<ele>151</ele>
						<time>2026-06-07T17:01:41Z</time>
					</trkpt>
					<trkpt lat="49.164480" lon="3.842210">
						<ele>155</ele>
						<time>2026-06-07T17:02:24Z</time>
					</trkpt>
					<trkpt lat="49.164490" lon="3.842330">
						<ele>156</ele>
						<time>2026-06-07T17:02:28Z</time>
					</trkpt>
					<trkpt lat="49.164040" lon="3.843080">
						<ele>163</ele>
						<time>2026-06-07T17:03:01Z</time>
					</trkpt>
					<trkpt lat="49.164810" lon="3.844370">
						<ele>172</ele>
						<time>2026-06-07T17:03:58Z</time>
					</trkpt>
					<trkpt lat="49.165330" lon="3.845480">
						<ele>181</ele>
						<time>2026-06-07T17:04:43Z</time>
					</trkpt>
					<trkpt lat="49.166070" lon="3.847560">
						<ele>199</ele>
						<time>2026-06-07T17:06:00Z</time>
					</trkpt>
					<trkpt lat="49.166590" lon="3.849170">
						<ele>211</ele>
						<time>2026-06-07T17:06:59Z</time>
					</trkpt>
					<trkpt lat="49.166970" lon="3.850370">
						<ele>220</ele>
						<time>2026-06-07T17:07:43Z</time>
					</trkpt>
					<trkpt lat="49.167430" lon="3.851650">
						<ele>223</ele>
						<time>2026-06-07T17:08:30Z</time>
					</trkpt>
					<trkpt lat="49.167580" lon="3.852420">
						<ele>220</ele>
						<time>2026-06-07T17:08:57Z</time>
					</trkpt>
					<trkpt lat="49.167800" lon="3.853580">
						<ele>216</ele>
						<time>2026-06-07T17:09:36Z</time>
					</trkpt>
					<trkpt lat="49.168040" lon="3.854400">
						<ele>209</ele>
						<time>2026-06-07T17:10:06Z</time>
					</trkpt>
					<trkpt lat="49.168350" lon="3.855030">
						<ele>200</ele>
						<time>2026-06-07T17:10:31Z</time>
					</trkpt>
					<trkpt lat="49.168370" lon="3.855050">
						<ele>199</ele>
						<time>2026-06-07T17:10:33Z</time>
					</trkpt>
					<trkpt lat="49.169280" lon="3.853720">
						<ele>212</ele>
						<time>2026-06-07T17:11:36Z</time>
					</trkpt>
					<trkpt lat="49.169330" lon="3.853670">
						<ele>213</ele>
						<time>2026-06-07T17:11:39Z</time>
					</trkpt>
					<trkpt lat="49.169480" lon="3.853550">
						<ele>214</ele>
						<time>2026-06-07T17:11:47Z</time>
					</trkpt>
					<trkpt lat="49.169740" lon="3.853420">
						<ele>216</ele>
						<time>2026-06-07T17:12:01Z</time>
					</trkpt>
					<trkpt lat="49.169750" lon="3.853400">
						<ele>216</ele>
						<time>2026-06-07T17:12:02Z</time>
					</trkpt>
					<trkpt lat="49.169900" lon="3.853210">
						<ele>218</ele>
						<time>2026-06-07T17:12:11Z</time>
					</trkpt>
					<trkpt lat="49.170410" lon="3.852310">
						<ele>226</ele>
						<time>2026-06-07T17:12:50Z</time>
					</trkpt>
					<trkpt lat="49.171670" lon="3.851320">
						<ele>224</ele>
						<time>2026-06-07T17:14:01Z</time>
					</trkpt>
					<trkpt lat="49.171710" lon="3.851270">
						<ele>224</ele>
						<time>2026-06-07T17:14:04Z</time>
					</trkpt>
					<trkpt lat="49.172370" lon="3.850490">
						<ele>226</ele>
						<time>2026-06-07T17:14:45Z</time>
					</trkpt>
					<trkpt lat="49.173190" lon="3.849760">
						<ele>222</ele>
						<time>2026-06-07T17:15:33Z</time>
					</trkpt>
					<trkpt lat="49.175610" lon="3.848130">
						<ele>224</ele>
						<time>2026-06-07T17:17:45Z</time>
					</trkpt>
					<trkpt lat="49.175910" lon="3.847930">
						<ele>225</ele>
						<time>2026-06-07T17:18:02Z</time>
					</trkpt>
					<trkpt lat="49.177370" lon="3.847150">
						<ele>225</ele>
						<time>2026-06-07T17:19:19Z</time>
					</trkpt>
					<trkpt lat="49.177890" lon="3.846630">
						<ele>226</ele>
						<time>2026-06-07T17:19:50Z</time>
					</trkpt>
					<trkpt lat="49.178290" lon="3.846080">
						<ele>225</ele>
						<time>2026-06-07T17:20:17Z</time>
					</trkpt>
					<trkpt lat="49.178300" lon="3.846070">
						<ele>225</ele>
						<time>2026-06-07T17:20:18Z</time>
					</trkpt>
					<trkpt lat="49.179090" lon="3.845230">
						<ele>223</ele>
						<time>2026-06-07T17:21:06Z</time>
					</trkpt>
					<trkpt lat="49.180390" lon="3.844120">
						<ele>219</ele>
						<time>2026-06-07T17:22:20Z</time>
					</trkpt>
					<trkpt lat="49.180940" lon="3.843710">
						<ele>217</ele>
						<time>2026-06-07T17:22:51Z</time>
					</trkpt>
					<trkpt lat="49.182410" lon="3.843740">
						<ele>200</ele>
						<time>2026-06-07T17:24:04Z</time>
					</trkpt>
					<trkpt lat="49.181980" lon="3.844280">
						<ele>201</ele>
						<time>2026-06-07T17:24:32Z</time>
					</trkpt>
					<trkpt lat="49.181550" lon="3.844640">
						<ele>203</ele>
						<time>2026-06-07T17:24:57Z</time>
					</trkpt>
					<trkpt lat="49.180200" lon="3.846150">
						<ele>201</ele>
						<time>2026-06-07T17:26:21Z</time>
					</trkpt>
					<trkpt lat="49.179540" lon="3.846920">
						<ele>203</ele>
						<time>2026-06-07T17:27:02Z</time>
					</trkpt>
					<trkpt lat="49.179250" lon="3.847380">
						<ele>204</ele>
						<time>2026-06-07T17:27:23Z</time>
					</trkpt>
					<trkpt lat="49.179020" lon="3.847790">
						<ele>205</ele>
						<time>2026-06-07T17:27:41Z</time>
					</trkpt>
					<trkpt lat="49.179040" lon="3.847840">
						<ele>204</ele>
						<time>2026-06-07T17:27:43Z</time>
					</trkpt>
					<trkpt lat="49.178960" lon="3.848650">
						<ele>198</ele>
						<time>2026-06-07T17:28:09Z</time>
					</trkpt>
					<trkpt lat="49.178960" lon="3.848730">
						<ele>198</ele>
						<time>2026-06-07T17:28:12Z</time>
					</trkpt>
					<trkpt lat="49.178940" lon="3.848950">
						<ele>196</ele>
						<time>2026-06-07T17:28:19Z</time>
					</trkpt>
					<trkpt lat="49.178890" lon="3.849350">
						<ele>192</ele>
						<time>2026-06-07T17:28:33Z</time>
					</trkpt>
					<trkpt lat="49.178810" lon="3.849640">
						<ele>190</ele>
						<time>2026-06-07T17:28:43Z</time>
					</trkpt>
					<trkpt lat="49.178660" lon="3.850030">
						<ele>188</ele>
						<time>2026-06-07T17:28:58Z</time>
					</trkpt>
					<trkpt lat="49.178310" lon="3.850680">
						<ele>186</ele>
						<time>2026-06-07T17:29:25Z</time>
					</trkpt>
					<trkpt lat="49.178180" lon="3.850930">
						<ele>184</ele>
						<time>2026-06-07T17:29:36Z</time>
					</trkpt>
					<trkpt lat="49.177990" lon="3.851470">
						<ele>180</ele>
						<time>2026-06-07T17:29:56Z</time>
					</trkpt>
					<trkpt lat="49.177830" lon="3.852030">
						<ele>177</ele>
						<time>2026-06-07T17:30:16Z</time>
					</trkpt>
					<trkpt lat="49.177790" lon="3.852190">
						<ele>177</ele>
						<time>2026-06-07T17:30:21Z</time>
					</trkpt>
					<trkpt lat="49.177700" lon="3.852630">
						<ele>175</ele>
						<time>2026-06-07T17:30:36Z</time>
					</trkpt>
					<trkpt lat="49.177710" lon="3.853010">
						<ele>172</ele>
						<time>2026-06-07T17:30:49Z</time>
					</trkpt>
					<trkpt lat="49.177750" lon="3.853580">
						<ele>169</ele>
						<time>2026-06-07T17:31:08Z</time>
					</trkpt>
					<trkpt lat="49.177750" lon="3.853690">
						<ele>168</ele>
						<time>2026-06-07T17:31:11Z</time>
					</trkpt>
					<trkpt lat="49.177750" lon="3.853830">
						<ele>168</ele>
						<time>2026-06-07T17:31:16Z</time>
					</trkpt>
					<trkpt lat="49.177730" lon="3.853960">
						<ele>167</ele>
						<time>2026-06-07T17:31:20Z</time>
					</trkpt>
					<trkpt lat="49.177680" lon="3.854160">
						<ele>167</ele>
						<time>2026-06-07T17:31:27Z</time>
					</trkpt>
					<trkpt lat="49.177590" lon="3.854440">
						<ele>165</ele>
						<time>2026-06-07T17:31:37Z</time>
					</trkpt>
					<trkpt lat="49.177390" lon="3.854790">
						<ele>163</ele>
						<time>2026-06-07T17:31:53Z</time>
					</trkpt>
					<trkpt lat="49.177090" lon="3.855080">
						<ele>159</ele>
						<time>2026-06-07T17:32:10Z</time>
					</trkpt>
					<trkpt lat="49.176650" lon="3.855450">
						<ele>155</ele>
						<time>2026-06-07T17:32:35Z</time>
					</trkpt>
					<trkpt lat="49.176410" lon="3.855670">
						<ele>151</ele>
						<time>2026-06-07T17:32:49Z</time>
					</trkpt>
					<trkpt lat="49.176180" lon="3.855970">
						<ele>146</ele>
						<time>2026-06-07T17:33:05Z</time>
					</trkpt>
					<trkpt lat="49.175830" lon="3.856590">
						<ele>140</ele>
						<time>2026-06-07T17:33:31Z</time>
					</trkpt>
					<trkpt lat="49.175700" lon="3.856810">
						<ele>140</ele>
						<time>2026-06-07T17:33:41Z</time>
					</trkpt>
					<trkpt lat="49.175950" lon="3.857100">
						<ele>138</ele>
						<time>2026-06-07T17:33:57Z</time>
					</trkpt>
					<trkpt lat="49.176840" lon="3.858100">
						<ele>135</ele>
						<time>2026-06-07T17:34:52Z</time>
					</trkpt>
					</trkseg>
				</trk>
			</gpx>