<?xml version="1.0" encoding="UTF-8" ?>
<gpx version="1.1" xmlns:xsi="http://www.w3.org/2001/XMLSchema-instance"
    xmlns="http://www.topografix.com/GPX/1/1"
    xsi:schemaLocation="http://www.topografix.com/GPX/1/1 http://www.topografix.com/GPX/1/1/gpx.xsd"
    creator="Openrunner - https://www.openrunner.com" >	<trk>
	                   <name>Trail Chaumuzy _18km-23634936</name>
						<trkseg>
					<trkpt lat="49.176800" lon="3.858060">
						<ele>135</ele>
						<time>2026-06-07T14:35:30Z</time>
					</trkpt>
					<trkpt lat="49.175830" lon="3.856960">
						<ele>139</ele>
						<time>2026-06-07T14:36:30Z</time>
					</trkpt>
					<trkpt lat="49.175700" lon="3.856810">
						<ele>140</ele>
						<time>2026-06-07T14:36:39Z</time>
					</trkpt>
					<trkpt lat="49.176180" lon="3.855970">
						<ele>146</ele>
						<time>2026-06-07T14:37:15Z</time>
					</trkpt>
					<trkpt lat="49.176320" lon="3.855790">
						<ele>149</ele>
						<time>2026-06-07T14:37:24Z</time>
					</trkpt>
					<trkpt lat="49.176410" lon="3.855670">
						<ele>151</ele>
						<time>2026-06-07T14:37:30Z</time>
					</trkpt>
					<trkpt lat="49.176650" lon="3.855450">
						<ele>155</ele>
						<time>2026-06-07T14:37:44Z</time>
					</trkpt>
					<trkpt lat="49.177090" lon="3.855080">
						<ele>159</ele>
						<time>2026-06-07T14:38:09Z</time>
					</trkpt>
					<trkpt lat="49.177360" lon="3.854820">
						<ele>162</ele>
						<time>2026-06-07T14:38:25Z</time>
					</trkpt>
					<trkpt lat="49.177390" lon="3.854790">
						<ele>163</ele>
						<time>2026-06-07T14:38:27Z</time>
					</trkpt>
					<trkpt lat="49.177590" lon="3.854440">
						<ele>165</ele>
						<time>2026-06-07T14:38:42Z</time>
					</trkpt>
					<trkpt lat="49.177680" lon="3.854160">
						<ele>167</ele>
						<time>2026-06-07T14:38:53Z</time>
					</trkpt>
					<trkpt lat="49.177730" lon="3.853960">
						<ele>167</ele>
						<time>2026-06-07T14:39:00Z</time>
					</trkpt>
					<trkpt lat="49.177750" lon="3.853830">
						<ele>168</ele>
						<time>2026-06-07T14:39:04Z</time>
					</trkpt>
					<trkpt lat="49.177750" lon="3.853690">
						<ele>168</ele>
						<time>2026-06-07T14:39:08Z</time>
					</trkpt>
					<trkpt lat="49.177750" lon="3.853580">
						<ele>169</ele>
						<time>2026-06-07T14:39:12Z</time>
					</trkpt>
					<trkpt lat="49.177710" lon="3.853010">
						<ele>172</ele>
						<time>2026-06-07T14:39:31Z</time>
					</trkpt>
					<trkpt lat="49.177700" lon="3.852630">
						<ele>175</ele>
						<time>2026-06-07T14:39:43Z</time>
					</trkpt>
					<trkpt lat="49.177790" lon="3.852190">
						<ele>177</ele>
						<time>2026-06-07T14:39:58Z</time>
					</trkpt>
					<trkpt lat="49.177830" lon="3.852030">
						<ele>177</ele>
						<time>2026-06-07T14:40:04Z</time>
					</trkpt>
					<trkpt lat="49.177990" lon="3.851470">
						<ele>180</ele>
						<time>2026-06-07T14:40:24Z</time>
					</trkpt>
					<trkpt lat="49.178180" lon="3.850930">
						<ele>184</ele>
						<time>2026-06-07T14:40:44Z</time>
					</trkpt>
					<trkpt lat="49.178510" lon="3.850320">
						<ele>187</ele>
						<time>2026-06-07T14:41:10Z</time>
					</trkpt>
					<trkpt lat="49.178660" lon="3.850030">
						<ele>188</ele>
						<time>2026-06-07T14:41:22Z</time>
					</trkpt>
					<trkpt lat="49.178810" lon="3.849640">
						<ele>190</ele>
						<time>2026-06-07T14:41:37Z</time>
					</trkpt>
					<trkpt lat="49.178890" lon="3.849350">
						<ele>192</ele>
						<time>2026-06-07T14:41:47Z</time>
					</trkpt>
					<trkpt lat="49.178940" lon="3.848950">
						<ele>196</ele>
						<time>2026-06-07T14:42:00Z</time>
					</trkpt>
					<trkpt lat="49.178960" lon="3.848730">
						<ele>198</ele>
						<time>2026-06-07T14:42:08Z</time>
					</trkpt>
					<trkpt lat="49.178960" lon="3.848650">
						<ele>198</ele>
						<time>2026-06-07T14:42:10Z</time>
					</trkpt>
					<trkpt lat="49.179040" lon="3.847840">
						<ele>204</ele>
						<time>2026-06-07T14:42:37Z</time>
					</trkpt>
					<trkpt lat="49.179020" lon="3.847790">
						<ele>205</ele>
						<time>2026-06-07T14:42:39Z</time>
					</trkpt>
					<trkpt lat="49.178920" lon="3.847530">
						<ele>208</ele>
						<time>2026-06-07T14:42:49Z</time>
					</trkpt>
					<trkpt lat="49.178910" lon="3.847510">
						<ele>208</ele>
						<time>2026-06-07T14:42:50Z</time>
					</trkpt>
					<trkpt lat="49.177740" lon="3.848540">
						<ele>211</ele>
						<time>2026-06-07T14:43:57Z</time>
					</trkpt>
					<trkpt lat="49.176930" lon="3.849060">
						<ele>212</ele>
						<time>2026-06-07T14:44:41Z</time>
					</trkpt>
					<trkpt lat="49.176600" lon="3.849270">
						<ele>211</ele>
						<time>2026-06-07T14:44:59Z</time>
					</trkpt>
					<trkpt lat="49.176300" lon="3.849590">
						<ele>208</ele>
						<time>2026-06-07T14:45:17Z</time>
					</trkpt>
					<trkpt lat="49.176130" lon="3.849700">
						<ele>207</ele>
						<time>2026-06-07T14:45:27Z</time>
					</trkpt>
					<trkpt lat="49.175950" lon="3.849740">
						<ele>207</ele>
						<time>2026-06-07T14:45:36Z</time>
					</trkpt>
					<trkpt lat="49.175670" lon="3.849750">
						<ele>207</ele>
						<time>2026-06-07T14:45:50Z</time>
					</trkpt>
					<trkpt lat="49.175310" lon="3.849750">
						<ele>208</ele>
						<time>2026-06-07T14:46:08Z</time>
					</trkpt>
					<trkpt lat="49.174710" lon="3.850150">
						<ele>205</ele>
						<time>2026-06-07T14:46:41Z</time>
					</trkpt>
					<trkpt lat="49.174480" lon="3.850370">
						<ele>203</ele>
						<time>2026-06-07T14:46:54Z</time>
					</trkpt>
					<trkpt lat="49.174190" lon="3.850560">
						<ele>202</ele>
						<time>2026-06-07T14:47:10Z</time>
					</trkpt>
					<trkpt lat="49.174080" lon="3.850620">
						<ele>202</ele>
						<time>2026-06-07T14:47:16Z</time>
					</trkpt>
					<trkpt lat="49.174000" lon="3.850660">
						<ele>203</ele>
						<time>2026-06-07T14:47:20Z</time>
					</trkpt>
					<trkpt lat="49.173630" lon="3.850910">
						<ele>203</ele>
						<time>2026-06-07T14:47:40Z</time>
					</trkpt>
					<trkpt lat="49.173110" lon="3.851540">
						<ele>203</ele>
						<time>2026-06-07T14:48:13Z</time>
					</trkpt>
					<trkpt lat="49.172560" lon="3.852150">
						<ele>206</ele>
						<time>2026-06-07T14:48:47Z</time>
					</trkpt>
					<trkpt lat="49.171970" lon="3.852700">
						<ele>209</ele>
						<time>2026-06-07T14:49:22Z</time>
					</trkpt>
					<trkpt lat="49.171940" lon="3.852720">
						<ele>209</ele>
						<time>2026-06-07T14:49:24Z</time>
					</trkpt>
					<trkpt lat="49.171950" lon="3.852760">
						<ele>209</ele>
						<time>2026-06-07T14:49:25Z</time>
					</trkpt>
					<trkpt lat="49.171900" lon="3.853740">
						<ele>202</ele>
						<time>2026-06-07T14:49:57Z</time>
					</trkpt>
					<trkpt lat="49.171900" lon="3.854070">
						<ele>199</ele>
						<time>2026-06-07T14:50:08Z</time>
					</trkpt>
					<trkpt lat="49.171910" lon="3.854130">
						<ele>199</ele>
						<time>2026-06-07T14:50:10Z</time>
					</trkpt>
					<trkpt lat="49.171940" lon="3.854300">
						<ele>197</ele>
						<time>2026-06-07T14:50:16Z</time>
					</trkpt>
					<trkpt lat="49.172090" lon="3.854940">
						<ele>191</ele>
						<time>2026-06-07T14:50:38Z</time>
					</trkpt>
					<trkpt lat="49.172240" lon="3.855480">
						<ele>186</ele>
						<time>2026-06-07T14:50:57Z</time>
					</trkpt>
					<trkpt lat="49.172280" lon="3.855590">
						<ele>185</ele>
						<time>2026-06-07T14:51:01Z</time>
					</trkpt>
					<trkpt lat="49.172530" lon="3.856250">
						<ele>179</ele>
						<time>2026-06-07T14:51:26Z</time>
					</trkpt>
					<trkpt lat="49.172670" lon="3.856610">
						<ele>175</ele>
						<time>2026-06-07T14:51:40Z</time>
					</trkpt>
					<trkpt lat="49.172900" lon="3.857230">
						<ele>171</ele>
						<time>2026-06-07T14:52:03Z</time>
					</trkpt>
					<trkpt lat="49.172900" lon="3.857230">
						<ele>171</ele>
						<time>2026-06-07T14:52:03Z</time>
					</trkpt>
					<trkpt lat="49.173270" lon="3.858190">
						<ele>164</ele>
						<time>2026-06-07T14:52:40Z</time>
					</trkpt>
					<trkpt lat="49.173310" lon="3.858230">
						<ele>163</ele>
						<time>2026-06-07T14:52:42Z</time>
					</trkpt>
					<trkpt lat="49.173720" lon="3.858680">
						<ele>158</ele>
						<time>2026-06-07T14:53:07Z</time>
					</trkpt>
					<trkpt lat="49.173940" lon="3.858900">
						<ele>155</ele>
						<time>2026-06-07T14:53:21Z</time>
					</trkpt>
					<trkpt lat="49.174460" lon="3.859500">
						<ele>149</ele>
						<time>2026-06-07T14:53:53Z</time>
					</trkpt>
					<trkpt lat="49.174540" lon="3.859590">
						<ele>148</ele>
						<time>2026-06-07T14:53:58Z</time>
					</trkpt>
					<trkpt lat="49.174550" lon="3.859360">
						<ele>148</ele>
						<time>2026-06-07T14:54:06Z</time>
					</trkpt>
					<trkpt lat="49.174620" lon="3.859030">
						<ele>147</ele>
						<time>2026-06-07T14:54:17Z</time>
					</trkpt>
					<trkpt lat="49.174790" lon="3.858450">
						<ele>144</ele>
						<time>2026-06-07T14:54:38Z</time>
					</trkpt>
					<trkpt lat="49.175080" lon="3.857790">
						<ele>142</ele>
						<time>2026-06-07T14:55:04Z</time>
					</trkpt>
					<trkpt lat="49.175120" lon="3.857710">
						<ele>142</ele>
						<time>2026-06-07T14:55:07Z</time>
					</trkpt>
					<trkpt lat="49.175720" lon="3.858250">
						<ele>136</ele>
						<time>2026-06-07T14:55:42Z</time>
					</trkpt>
					<trkpt lat="49.176280" lon="3.858710">
						<ele>135</ele>
						<time>2026-06-07T14:56:14Z</time>
					</trkpt>
					<trkpt lat="49.176350" lon="3.858780">
						<ele>134</ele>
						<time>2026-06-07T14:56:18Z</time>
					</trkpt>
					<trkpt lat="49.177240" lon="3.859560">
						<ele>131</ele>
						<time>2026-06-07T14:57:09Z</time>
					</trkpt>
					<trkpt lat="49.177280" lon="3.859600">
						<ele>131</ele>
						<time>2026-06-07T14:57:12Z</time>
					</trkpt>
					<trkpt lat="49.177230" lon="3.859680">
						<ele>131</ele>
						<time>2026-06-07T14:57:15Z</time>
					</trkpt>
					<trkpt lat="49.176710" lon="3.860630">
						<ele>132</ele>
						<time>2026-06-07T14:57:56Z</time>
					</trkpt>
					<trkpt lat="49.176390" lon="3.861220">
						<ele>133</ele>
						<time>2026-06-07T14:58:21Z</time>
					</trkpt>
					<trkpt lat="49.176240" lon="3.861510">
						<ele>133</ele>
						<time>2026-06-07T14:58:33Z</time>
					</trkpt>
					<trkpt lat="49.176100" lon="3.861850">
						<ele>133</ele>
						<time>2026-06-07T14:58:46Z</time>
					</trkpt>
					<trkpt lat="49.175760" lon="3.862700">
						<ele>134</ele>
						<time>2026-06-07T14:59:19Z</time>
					</trkpt>
					<trkpt lat="49.175640" lon="3.862980">
						<ele>134</ele>
						<time>2026-06-07T14:59:30Z</time>
					</trkpt>
					<trkpt lat="49.175460" lon="3.863260">
						<ele>136</ele>
						<time>2026-06-07T14:59:43Z</time>
					</trkpt>
					<trkpt lat="49.175240" lon="3.863570">
						<ele>137</ele>
						<time>2026-06-07T14:59:58Z</time>
					</trkpt>
					<trkpt lat="49.175110" lon="3.863950">
						<ele>137</ele>
						<time>2026-06-07T15:00:12Z</time>
					</trkpt>
					<trkpt lat="49.174960" lon="3.864480">
						<ele>138</ele>
						<time>2026-06-07T15:00:30Z</time>
					</trkpt>
					<trkpt lat="49.174700" lon="3.865100">
						<ele>138</ele>
						<time>2026-06-07T15:00:55Z</time>
					</trkpt>
					<trkpt lat="49.174610" lon="3.865930">
						<ele>136</ele>
						<time>2026-06-07T15:01:22Z</time>
					</trkpt>
					<trkpt lat="49.174560" lon="3.866660">
						<ele>133</ele>
						<time>2026-06-07T15:01:46Z</time>
					</trkpt>
					<trkpt lat="49.174460" lon="3.866750">
						<ele>132</ele>
						<time>2026-06-07T15:01:52Z</time>
					</trkpt>
					<trkpt lat="49.174300" lon="3.867070">
						<ele>131</ele>
						<time>2026-06-07T15:02:05Z</time>
					</trkpt>
					<trkpt lat="49.174210" lon="3.867080">
						<ele>131</ele>
						<time>2026-06-07T15:02:10Z</time>
					</trkpt>
					<trkpt lat="49.173830" lon="3.867020">
						<ele>131</ele>
						<time>2026-06-07T15:02:29Z</time>
					</trkpt>
					<trkpt lat="49.173570" lon="3.867040">
						<ele>131</ele>
						<time>2026-06-07T15:02:42Z</time>
					</trkpt>
					<trkpt lat="49.173320" lon="3.867120">
						<ele>130</ele>
						<time>2026-06-07T15:02:55Z</time>
					</trkpt>
					<trkpt lat="49.173140" lon="3.867250">
						<ele>129</ele>
						<time>2026-06-07T15:03:04Z</time>
					</trkpt>
					<trkpt lat="49.172920" lon="3.867480">
						<ele>127</ele>
						<time>2026-06-07T15:03:18Z</time>
					</trkpt>
					<trkpt lat="49.172420" lon="3.868250">
						<ele>123</ele>
						<time>2026-06-07T15:03:53Z</time>
					</trkpt>
					<trkpt lat="49.171550" lon="3.869400">
						<ele>127</ele>
						<time>2026-06-07T15:04:51Z</time>
					</trkpt>
					<trkpt lat="49.171180" lon="3.869800">
						<ele>129</ele>
						<time>2026-06-07T15:05:14Z</time>
					</trkpt>
					<trkpt lat="49.170950" lon="3.869950">
						<ele>130</ele>
						<time>2026-06-07T15:05:26Z</time>
					</trkpt>
					<trkpt lat="49.170620" lon="3.870090">
						<ele>130</ele>
						<time>2026-06-07T15:05:43Z</time>
					</trkpt>
					<trkpt lat="49.170060" lon="3.870290">
						<ele>132</ele>
						<time>2026-06-07T15:06:12Z</time>
					</trkpt>
					<trkpt lat="49.169970" lon="3.870280">
						<ele>132</ele>
						<time>2026-06-07T15:06:16Z</time>
					</trkpt>
					<trkpt lat="49.169820" lon="3.870170">
						<ele>132</ele>
						<time>2026-06-07T15:06:25Z</time>
					</trkpt>
					<trkpt lat="49.169670" lon="3.869840">
						<ele>133</ele>
						<time>2026-06-07T15:06:38Z</time>
					</trkpt>
					<trkpt lat="49.169530" lon="3.869510">
						<ele>133</ele>
						<time>2026-06-07T15:06:51Z</time>
					</trkpt>
					<trkpt lat="49.169390" lon="3.869280">
						<ele>133</ele>
						<time>2026-06-07T15:07:01Z</time>
					</trkpt>
					<trkpt lat="49.169200" lon="3.869140">
						<ele>134</ele>
						<time>2026-06-07T15:07:12Z</time>
					</trkpt>
					<trkpt lat="49.168930" lon="3.869020">
						<ele>135</ele>
						<time>2026-06-07T15:07:26Z</time>
					</trkpt>
					<trkpt lat="49.167820" lon="3.868680">
						<ele>135</ele>
						<time>2026-06-07T15:08:22Z</time>
					</trkpt>
					<trkpt lat="49.167290" lon="3.868510">
						<ele>136</ele>
						<time>2026-06-07T15:08:49Z</time>
					</trkpt>
					<trkpt lat="49.167010" lon="3.868410">
						<ele>138</ele>
						<time>2026-06-07T15:09:04Z</time>
					</trkpt>
					<trkpt lat="49.166810" lon="3.868410">
						<ele>139</ele>
						<time>2026-06-07T15:09:14Z</time>
					</trkpt>
					<trkpt lat="49.166600" lon="3.868510">
						<ele>140</ele>
						<time>2026-06-07T15:09:25Z</time>
					</trkpt>
					<trkpt lat="49.165860" lon="3.869120">
						<ele>146</ele>
						<time>2026-06-07T15:10:07Z</time>
					</trkpt>
					<trkpt lat="49.165770" lon="3.869200">
						<ele>147</ele>
						<time>2026-06-07T15:10:12Z</time>
					</trkpt>
					<trkpt lat="49.165210" lon="3.869690">
						<ele>151</ele>
						<time>2026-06-07T15:10:44Z</time>
					</trkpt>
					<trkpt lat="49.164940" lon="3.869890">
						<ele>152</ele>
						<time>2026-06-07T15:10:59Z</time>
					</trkpt>
					<trkpt lat="49.164730" lon="3.869990">
						<ele>153</ele>
						<time>2026-06-07T15:11:10Z</time>
					</trkpt>
					<trkpt lat="49.164530" lon="3.870020">
						<ele>154</ele>
						<time>2026-06-07T15:11:21Z</time>
					</trkpt>
					<trkpt lat="49.164190" lon="3.870030">
						<ele>157</ele>
						<time>2026-06-07T15:11:38Z</time>
					</trkpt>
					<trkpt lat="49.163880" lon="3.869980">
						<ele>157</ele>
						<time>2026-06-07T15:11:53Z</time>
					</trkpt>
					<trkpt lat="49.163740" lon="3.869940">
						<ele>157</ele>
						<time>2026-06-07T15:12:00Z</time>
					</trkpt>
					<trkpt lat="49.163560" lon="3.869890">
						<ele>157</ele>
						<time>2026-06-07T15:12:09Z</time>
					</trkpt>
					<trkpt lat="49.163350" lon="3.869680">
						<ele>159</ele>
						<time>2026-06-07T15:12:22Z</time>
					</trkpt>
					<trkpt lat="49.161430" lon="3.867420">
						<ele>174</ele>
						<time>2026-06-07T15:14:23Z</time>
					</trkpt>
					<trkpt lat="49.160690" lon="3.866550">
						<ele>181</ele>
						<time>2026-06-07T15:15:10Z</time>
					</trkpt>
					<trkpt lat="49.160220" lon="3.866030">
						<ele>185</ele>
						<time>2026-06-07T15:15:39Z</time>
					</trkpt>
					<trkpt lat="49.159590" lon="3.865450">
						<ele>189</ele>
						<time>2026-06-07T15:16:16Z</time>
					</trkpt>
					<trkpt lat="49.159490" lon="3.865370">
						<ele>190</ele>
						<time>2026-06-07T15:16:21Z</time>
					</trkpt>
					<trkpt lat="49.158140" lon="3.864320">
						<ele>197</ele>
						<time>2026-06-07T15:17:37Z</time>
					</trkpt>
					<trkpt lat="49.157560" lon="3.863760">
						<ele>202</ele>
						<time>2026-06-07T15:18:12Z</time>
					</trkpt>
					<trkpt lat="49.157490" lon="3.863710">
						<ele>203</ele>
						<time>2026-06-07T15:18:15Z</time>
					</trkpt>
					<trkpt lat="49.157400" lon="3.863650">
						<ele>204</ele>
						<time>2026-06-07T15:18:20Z</time>
					</trkpt>
					<trkpt lat="49.156810" lon="3.863640">
						<ele>208</ele>
						<time>2026-06-07T15:18:50Z</time>
					</trkpt>
					<trkpt lat="49.156430" lon="3.863600">
						<ele>212</ele>
						<time>2026-06-07T15:19:09Z</time>
					</trkpt>
					<trkpt lat="49.155950" lon="3.863750">
						<ele>214</ele>
						<time>2026-06-07T15:19:33Z</time>
					</trkpt>
					<trkpt lat="49.155360" lon="3.864030">
						<ele>218</ele>
						<time>2026-06-07T15:20:04Z</time>
					</trkpt>
					<trkpt lat="49.155270" lon="3.864080">
						<ele>219</ele>
						<time>2026-06-07T15:20:09Z</time>
					</trkpt>
					<trkpt lat="49.153800" lon="3.864850">
						<ele>229</ele>
						<time>2026-06-07T15:21:27Z</time>
					</trkpt>
					<trkpt lat="49.153610" lon="3.864940">
						<ele>230</ele>
						<time>2026-06-07T15:21:37Z</time>
					</trkpt>
					<trkpt lat="49.153450" lon="3.865180">
						<ele>230</ele>
						<time>2026-06-07T15:21:48Z</time>
					</trkpt>
					<trkpt lat="49.153160" lon="3.865630">
						<ele>229</ele>
						<time>2026-06-07T15:22:09Z</time>
					</trkpt>
					<trkpt lat="49.152530" lon="3.866670">
						<ele>231</ele>
						<time>2026-06-07T15:22:55Z</time>
					</trkpt>
					<trkpt lat="49.152270" lon="3.867220">
						<ele>233</ele>
						<time>2026-06-07T15:23:17Z</time>
					</trkpt>
					<trkpt lat="49.151890" lon="3.867900">
						<ele>238</ele>
						<time>2026-06-07T15:23:47Z</time>
					</trkpt>
					<trkpt lat="49.151450" lon="3.868690">
						<ele>244</ele>
						<time>2026-06-07T15:24:21Z</time>
					</trkpt>
					<trkpt lat="49.151340" lon="3.868880">
						<ele>245</ele>
						<time>2026-06-07T15:24:29Z</time>
					</trkpt>
					<trkpt lat="49.151030" lon="3.869230">
						<ele>247</ele>
						<time>2026-06-07T15:24:48Z</time>
					</trkpt>
					<trkpt lat="49.150990" lon="3.869260">
						<ele>247</ele>
						<time>2026-06-07T15:24:50Z</time>
					</trkpt>
					<trkpt lat="49.150470" lon="3.869610">
						<ele>249</ele>
						<time>2026-06-07T15:25:19Z</time>
					</trkpt>
					<trkpt lat="49.149080" lon="3.870450">
						<ele>251</ele>
						<time>2026-06-07T15:26:34Z</time>
					</trkpt>
					<trkpt lat="49.148170" lon="3.871060">
						<ele>253</ele>
						<time>2026-06-07T15:27:23Z</time>
					</trkpt>
					<trkpt lat="49.148020" lon="3.871130">
						<ele>253</ele>
						<time>2026-06-07T15:27:31Z</time>
					</trkpt>
					<trkpt lat="49.147620" lon="3.871340">
						<ele>255</ele>
						<time>2026-06-07T15:27:52Z</time>
					</trkpt>
					<trkpt lat="49.147510" lon="3.871380">
						<ele>255</ele>
						<time>2026-06-07T15:27:58Z</time>
					</trkpt>
					<trkpt lat="49.147360" lon="3.871430">
						<ele>255</ele>
						<time>2026-06-07T15:28:06Z</time>
					</trkpt>
					<trkpt lat="49.146710" lon="3.871420">
						<ele>256</ele>
						<time>2026-06-07T15:28:38Z</time>
					</trkpt>
					<trkpt lat="49.146410" lon="3.871550">
						<ele>257</ele>
						<time>2026-06-07T15:28:54Z</time>
					</trkpt>
					<trkpt lat="49.146150" lon="3.871680">
						<ele>258</ele>
						<time>2026-06-07T15:29:08Z</time>
					</trkpt>
					<trkpt lat="49.145770" lon="3.871690">
						<ele>259</ele>
						<time>2026-06-07T15:29:27Z</time>
					</trkpt>
					<trkpt lat="49.145080" lon="3.871620">
						<ele>260</ele>
						<time>2026-06-07T15:30:01Z</time>
					</trkpt>
					<trkpt lat="49.144690" lon="3.871530">
						<ele>260</ele>
						<time>2026-06-07T15:30:21Z</time>
					</trkpt>
					<trkpt lat="49.144620" lon="3.871520">
						<ele>261</ele>
						<time>2026-06-07T15:30:24Z</time>
					</trkpt>
					<trkpt lat="49.144330" lon="3.872130">
						<ele>260</ele>
						<time>2026-06-07T15:30:49Z</time>
					</trkpt>
					<trkpt lat="49.143770" lon="3.870880">
						<ele>261</ele>
						<time>2026-06-07T15:31:39Z</time>
					</trkpt>
					<trkpt lat="49.143440" lon="3.869740">
						<ele>259</ele>
						<time>2026-06-07T15:32:20Z</time>
					</trkpt>
					<trkpt lat="49.142810" lon="3.868500">
						<ele>258</ele>
						<time>2026-06-07T15:33:11Z</time>
					</trkpt>
					<trkpt lat="49.142710" lon="3.867660">
						<ele>259</ele>
						<time>2026-06-07T15:33:39Z</time>
					</trkpt>
					<trkpt lat="49.142470" lon="3.867010">
						<ele>258</ele>
						<time>2026-06-07T15:34:03Z</time>
					</trkpt>
					<trkpt lat="49.141750" lon="3.865400">
						<ele>257</ele>
						<time>2026-06-07T15:35:07Z</time>
					</trkpt>
					<trkpt lat="49.141400" lon="3.864820">
						<ele>255</ele>
						<time>2026-06-07T15:35:33Z</time>
					</trkpt>
					<trkpt lat="49.141220" lon="3.864700">
						<ele>254</ele>
						<time>2026-06-07T15:35:43Z</time>
					</trkpt>
					<trkpt lat="49.140580" lon="3.864430">
						<ele>248</ele>
						<time>2026-06-07T15:36:16Z</time>
					</trkpt>
					<trkpt lat="49.140390" lon="3.864380">
						<ele>247</ele>
						<time>2026-06-07T15:36:26Z</time>
					</trkpt>
					<trkpt lat="49.140170" lon="3.864440">
						<ele>245</ele>
						<time>2026-06-07T15:36:37Z</time>
					</trkpt>
					<trkpt lat="49.139920" lon="3.864550">
						<ele>244</ele>
						<time>2026-06-07T15:36:50Z</time>
					</trkpt>
					<trkpt lat="49.139610" lon="3.864490">
						<ele>241</ele>
						<time>2026-06-07T15:37:06Z</time>
					</trkpt>
					<trkpt lat="49.139300" lon="3.864300">
						<ele>238</ele>
						<time>2026-06-07T15:37:22Z</time>
					</trkpt>
					<trkpt lat="49.139120" lon="3.864070">
						<ele>236</ele>
						<time>2026-06-07T15:37:34Z</time>
					</trkpt>
					<trkpt lat="49.138980" lon="3.863520">
						<ele>234</ele>
						<time>2026-06-07T15:37:53Z</time>
					</trkpt>
					<trkpt lat="49.138830" lon="3.863320">
						<ele>233</ele>
						<time>2026-06-07T15:38:03Z</time>
					</trkpt>
					<trkpt lat="49.138610" lon="3.863120">
						<ele>231</ele>
						<time>2026-06-07T15:38:16Z</time>
					</trkpt>
					<trkpt lat="49.138440" lon="3.862710">
						<ele>229</ele>
						<time>2026-06-07T15:38:32Z</time>
					</trkpt>
					<trkpt lat="49.138390" lon="3.861540">
						<ele>224</ele>
						<time>2026-06-07T15:39:10Z</time>
					</trkpt>
					<trkpt lat="49.138410" lon="3.861520">
						<ele>224</ele>
						<time>2026-06-07T15:39:12Z</time>
					</trkpt>
					<trkpt lat="49.139000" lon="3.861050">
						<ele>229</ele>
						<time>2026-06-07T15:39:45Z</time>
					</trkpt>
					<trkpt lat="49.139130" lon="3.860880">
						<ele>230</ele>
						<time>2026-06-07T15:39:53Z</time>
					</trkpt>
					<trkpt lat="49.139200" lon="3.860740">
						<ele>230</ele>
						<time>2026-06-07T15:39:59Z</time>
					</trkpt>
					<trkpt lat="49.139350" lon="3.860450">
						<ele>230</ele>
						<time>2026-06-07T15:40:11Z</time>
					</trkpt>
					<trkpt lat="49.139680" lon="3.859780">
						<ele>230</ele>
						<time>2026-06-07T15:40:39Z</time>
					</trkpt>
					<trkpt lat="49.139940" lon="3.859760">
						<ele>235</ele>
						<time>2026-06-07T15:40:52Z</time>
					</trkpt>
					<trkpt lat="49.140110" lon="3.859660">
						<ele>236</ele>
						<time>2026-06-07T15:41:01Z</time>
					</trkpt>
					<trkpt lat="49.140200" lon="3.859440">
						<ele>235</ele>
						<time>2026-06-07T15:41:09Z</time>
					</trkpt>
					<trkpt lat="49.140400" lon="3.859370">
						<ele>236</ele>
						<time>2026-06-07T15:41:20Z</time>
					</trkpt>
					<trkpt lat="49.140500" lon="3.859380">
						<ele>238</ele>
						<time>2026-06-07T15:41:25Z</time>
					</trkpt>
					<trkpt lat="49.140600" lon="3.859040">
						<ele>235</ele>
						<time>2026-06-07T15:41:37Z</time>
					</trkpt>
					<trkpt lat="49.141150" lon="3.858970">
						<ele>240</ele>
						<time>2026-06-07T15:42:04Z</time>
					</trkpt>
					<trkpt lat="49.141300" lon="3.858820">
						<ele>239</ele>
						<time>2026-06-07T15:42:13Z</time>
					</trkpt>
					<trkpt lat="49.141410" lon="3.858640">
						<ele>239</ele>
						<time>2026-06-07T15:42:21Z</time>
					</trkpt>
					<trkpt lat="49.141600" lon="3.858580">
						<ele>240</ele>
						<time>2026-06-07T15:42:31Z</time>
					</trkpt>
					<trkpt lat="49.141840" lon="3.858560">
						<ele>242</ele>
						<time>2026-06-07T15:42:43Z</time>
					</trkpt>
					<trkpt lat="49.141910" lon="3.858360">
						<ele>242</ele>
						<time>2026-06-07T15:42:51Z</time>
					</trkpt>
					<trkpt lat="49.141860" lon="3.858080">
						<ele>238</ele>
						<time>2026-06-07T15:43:00Z</time>
					</trkpt>
					<trkpt lat="49.141780" lon="3.857920">
						<ele>235</ele>
						<time>2026-06-07T15:43:07Z</time>
					</trkpt>
					<trkpt lat="49.141790" lon="3.857810">
						<ele>233</ele>
						<time>2026-06-07T15:43:10Z</time>
					</trkpt>
					<trkpt lat="49.141860" lon="3.857780">
						<ele>234</ele>
						<time>2026-06-07T15:43:14Z</time>
					</trkpt>
					<trkpt lat="49.141980" lon="3.857930">
						<ele>237</ele>
						<time>2026-06-07T15:43:22Z</time>
					</trkpt>
					<trkpt lat="49.142080" lon="3.858070">
						<ele>240</ele>
						<time>2026-06-07T15:43:29Z</time>
					</trkpt>
					<trkpt lat="49.142110" lon="3.858230">
						<ele>242</ele>
						<time>2026-06-07T15:43:34Z</time>
					</trkpt>
					<trkpt lat="49.142200" lon="3.858380">
						<ele>244</ele>
						<time>2026-06-07T15:43:41Z</time>
					</trkpt>
					<trkpt lat="49.142260" lon="3.858340">
						<ele>245</ele>
						<time>2026-06-07T15:43:44Z</time>
					</trkpt>
					<trkpt lat="49.142260" lon="3.858250">
						<ele>244</ele>
						<time>2026-06-07T15:43:47Z</time>
					</trkpt>
					<trkpt lat="49.142180" lon="3.858120">
						<ele>242</ele>
						<time>2026-06-07T15:43:53Z</time>
					</trkpt>
					<trkpt lat="49.142170" lon="3.857930">
						<ele>240</ele>
						<time>2026-06-07T15:43:59Z</time>
					</trkpt>
					<trkpt lat="49.142250" lon="3.857620">
						<ele>239</ele>
						<time>2026-06-07T15:44:10Z</time>
					</trkpt>
					<trkpt lat="49.142240" lon="3.857390">
						<ele>237</ele>
						<time>2026-06-07T15:44:17Z</time>
					</trkpt>
					<trkpt lat="49.142270" lon="3.857160">
						<ele>236</ele>
						<time>2026-06-07T15:44:25Z</time>
					</trkpt>
					<trkpt lat="49.142370" lon="3.856820">
						<ele>236</ele>
						<time>2026-06-07T15:44:37Z</time>
					</trkpt>
					<trkpt lat="49.142430" lon="3.856290">
						<ele>234</ele>
						<time>2026-06-07T15:44:55Z</time>
					</trkpt>
					<trkpt lat="49.142630" lon="3.856100">
						<ele>235</ele>
						<time>2026-06-07T15:45:07Z</time>
					</trkpt>
					<trkpt lat="49.142950" lon="3.855440">
						<ele>235</ele>
						<time>2026-06-07T15:45:34Z</time>
					</trkpt>
					<trkpt lat="49.143120" lon="3.854980">
						<ele>236</ele>
						<time>2026-06-07T15:45:51Z</time>
					</trkpt>
					<trkpt lat="49.143120" lon="3.854200">
						<ele>238</ele>
						<time>2026-06-07T15:46:16Z</time>
					</trkpt>
					<trkpt lat="49.143050" lon="3.853270">
						<ele>241</ele>
						<time>2026-06-07T15:46:47Z</time>
					</trkpt>
					<trkpt lat="49.143030" lon="3.852520">
						<ele>243</ele>
						<time>2026-06-07T15:47:12Z</time>
					</trkpt>
					<trkpt lat="49.142970" lon="3.851750">
						<ele>242</ele>
						<time>2026-06-07T15:47:37Z</time>
					</trkpt>
					<trkpt lat="49.142880" lon="3.850770">
						<ele>240</ele>
						<time>2026-06-07T15:48:09Z</time>
					</trkpt>
					<trkpt lat="49.142670" lon="3.850680">
						<ele>238</ele>
						<time>2026-06-07T15:48:20Z</time>
					</trkpt>
					<trkpt lat="49.142620" lon="3.850480">
						<ele>237</ele>
						<time>2026-06-07T15:48:27Z</time>
					</trkpt>
					<trkpt lat="49.142420" lon="3.850120">
						<ele>236</ele>
						<time>2026-06-07T15:48:43Z</time>
					</trkpt>
					<trkpt lat="49.142400" lon="3.850070">
						<ele>236</ele>
						<time>2026-06-07T15:48:45Z</time>
					</trkpt>
					<trkpt lat="49.142360" lon="3.849870">
						<ele>236</ele>
						<time>2026-06-07T15:48:52Z</time>
					</trkpt>
					<trkpt lat="49.142340" lon="3.849710">
						<ele>236</ele>
						<time>2026-06-07T15:48:57Z</time>
					</trkpt>
					<trkpt lat="49.142250" lon="3.848560">
						<ele>237</ele>
						<time>2026-06-07T15:49:35Z</time>
					</trkpt>
					<trkpt lat="49.142220" lon="3.846760">
						<ele>240</ele>
						<time>2026-06-07T15:50:34Z</time>
					</trkpt>
					<trkpt lat="49.142200" lon="3.846650">
						<ele>240</ele>
						<time>2026-06-07T15:50:38Z</time>
					</trkpt>
					<trkpt lat="49.142100" lon="3.845870">
						<ele>241</ele>
						<time>2026-06-07T15:51:04Z</time>
					</trkpt>
					<trkpt lat="49.142060" lon="3.845590">
						<ele>242</ele>
						<time>2026-06-07T15:51:13Z</time>
					</trkpt>
					<trkpt lat="49.142070" lon="3.845500">
						<ele>242</ele>
						<time>2026-06-07T15:51:16Z</time>
					</trkpt>
					<trkpt lat="49.142150" lon="3.844860">
						<ele>242</ele>
						<time>2026-06-07T15:51:37Z</time>
					</trkpt>
					<trkpt lat="49.142330" lon="3.844090">
						<ele>243</ele>
						<time>2026-06-07T15:52:04Z</time>
					</trkpt>
					<trkpt lat="49.142380" lon="3.843830">
						<ele>243</ele>
						<time>2026-06-07T15:52:13Z</time>
					</trkpt>
					<trkpt lat="49.142510" lon="3.843160">
						<ele>245</ele>
						<time>2026-06-07T15:52:36Z</time>
					</trkpt>
					<trkpt lat="49.142570" lon="3.842870">
						<ele>245</ele>
						<time>2026-06-07T15:52:46Z</time>
					</trkpt>
					<trkpt lat="49.142680" lon="3.842210">
						<ele>245</ele>
						<time>2026-06-07T15:53:08Z</time>
					</trkpt>
					<trkpt lat="49.142700" lon="3.842110">
						<ele>245</ele>
						<time>2026-06-07T15:53:11Z</time>
					</trkpt>
					<trkpt lat="49.142880" lon="3.842110">
						<ele>245</ele>
						<time>2026-06-07T15:53:20Z</time>
					</trkpt>
					<trkpt lat="49.142940" lon="3.841580">
						<ele>245</ele>
						<time>2026-06-07T15:53:38Z</time>
					</trkpt>
					<trkpt lat="49.142970" lon="3.841230">
						<ele>245</ele>
						<time>2026-06-07T15:53:50Z</time>
					</trkpt>
					<trkpt lat="49.142970" lon="3.841200">
						<ele>245</ele>
						<time>2026-06-07T15:53:51Z</time>
					</trkpt>
					<trkpt lat="49.142810" lon="3.840870">
						<ele>243</ele>
						<time>2026-06-07T15:54:04Z</time>
					</trkpt>
					<trkpt lat="49.142910" lon="3.840480">
						<ele>243</ele>
						<time>2026-06-07T15:54:18Z</time>
					</trkpt>
					<trkpt lat="49.143030" lon="3.840210">
						<ele>242</ele>
						<time>2026-06-07T15:54:28Z</time>
					</trkpt>
					<trkpt lat="49.143230" lon="3.839760">
						<ele>242</ele>
						<time>2026-06-07T15:54:46Z</time>
					</trkpt>
					<trkpt lat="49.143380" lon="3.839440">
						<ele>242</ele>
						<time>2026-06-07T15:54:59Z</time>
					</trkpt>
					<trkpt lat="49.143590" lon="3.838920">
						<ele>242</ele>
						<time>2026-06-07T15:55:19Z</time>
					</trkpt>
					<trkpt lat="49.143740" lon="3.838370">
						<ele>242</ele>
						<time>2026-06-07T15:55:39Z</time>
					</trkpt>
					<trkpt lat="49.143790" lon="3.838070">
						<ele>242</ele>
						<time>2026-06-07T15:55:49Z</time>
					</trkpt>
					<trkpt lat="49.143790" lon="3.837680">
						<ele>242</ele>
						<time>2026-06-07T15:56:02Z</time>
					</trkpt>
					<trkpt lat="49.143960" lon="3.836350">
						<ele>242</ele>
						<time>2026-06-07T15:56:46Z</time>
					</trkpt>
					<trkpt lat="49.144320" lon="3.833580">
						<ele>241</ele>
						<time>2026-06-07T15:58:18Z</time>
					</trkpt>
					<trkpt lat="49.144600" lon="3.831580">
						<ele>242</ele>
						<time>2026-06-07T15:59:25Z</time>
					</trkpt>
					<trkpt lat="49.144660" lon="3.831020">
						<ele>245</ele>
						<time>2026-06-07T15:59:44Z</time>
					</trkpt>
					<trkpt lat="49.145600" lon="3.830550">
						<ele>253</ele>
						<time>2026-06-07T16:00:33Z</time>
					</trkpt>
					<trkpt lat="49.146600" lon="3.830080">
						<ele>250</ele>
						<time>2026-06-07T16:01:26Z</time>
					</trkpt>
					<trkpt lat="49.146960" lon="3.829900">
						<ele>249</ele>
						<time>2026-06-07T16:01:45Z</time>
					</trkpt>
					<trkpt lat="49.147650" lon="3.829770">
						<ele>246</ele>
						<time>2026-06-07T16:02:19Z</time>
					</trkpt>
					<trkpt lat="49.148330" lon="3.829650">
						<ele>243</ele>
						<time>2026-06-07T16:02:54Z</time>
					</trkpt>
					<trkpt lat="49.148690" lon="3.829650">
						<ele>242</ele>
						<time>2026-06-07T16:03:12Z</time>
					</trkpt>
					<trkpt lat="49.149290" lon="3.829940">
						<ele>241</ele>
						<time>2026-06-07T16:03:43Z</time>
					</trkpt>
					<trkpt lat="49.149910" lon="3.830250">
						<ele>234</ele>
						<time>2026-06-07T16:04:16Z</time>
					</trkpt>
					<trkpt lat="49.150140" lon="3.830460">
						<ele>233</ele>
						<time>2026-06-07T16:04:29Z</time>
					</trkpt>
					<trkpt lat="49.150360" lon="3.830880">
						<ele>232</ele>
						<time>2026-06-07T16:04:47Z</time>
					</trkpt>
					<trkpt lat="49.150430" lon="3.831030">
						<ele>231</ele>
						<time>2026-06-07T16:04:53Z</time>
					</trkpt>
					<trkpt lat="49.150760" lon="3.831090">
						<ele>228</ele>
						<time>2026-06-07T16:05:10Z</time>
					</trkpt>
					<trkpt lat="49.151170" lon="3.831200">
						<ele>226</ele>
						<time>2026-06-07T16:05:30Z</time>
					</trkpt>
					<trkpt lat="49.151590" lon="3.831320">
						<ele>224</ele>
						<time>2026-06-07T16:05:52Z</time>
					</trkpt>
					<trkpt lat="49.151910" lon="3.831370">
						<ele>222</ele>
						<time>2026-06-07T16:06:08Z</time>
					</trkpt>
					<trkpt lat="49.152110" lon="3.831310">
						<ele>221</ele>
						<time>2026-06-07T16:06:18Z</time>
					</trkpt>
					<trkpt lat="49.152080" lon="3.831290">
						<ele>221</ele>
						<time>2026-06-07T16:06:20Z</time>
					</trkpt>
					<trkpt lat="49.152890" lon="3.832570">
						<ele>225</ele>
						<time>2026-06-07T16:07:18Z</time>
					</trkpt>
					<trkpt lat="49.153090" lon="3.832930">
						<ele>226</ele>
						<time>2026-06-07T16:07:33Z</time>
					</trkpt>
					<trkpt lat="49.153160" lon="3.833050">
						<ele>226</ele>
						<time>2026-06-07T16:07:39Z</time>
					</trkpt>
					<trkpt lat="49.153580" lon="3.833690">
						<ele>227</ele>
						<time>2026-06-07T16:08:08Z</time>
					</trkpt>
					<trkpt lat="49.153950" lon="3.834210">
						<ele>227</ele>
						<time>2026-06-07T16:08:34Z</time>
					</trkpt>
					<trkpt lat="49.154700" lon="3.835890">
						<ele>224</ele>
						<time>2026-06-07T16:09:40Z</time>
					</trkpt>
					<trkpt lat="49.154750" lon="3.836000">
						<ele>224</ele>
						<time>2026-06-07T16:09:44Z</time>
					</trkpt>
					<trkpt lat="49.154830" lon="3.835920">
						<ele>224</ele>
						<time>2026-06-07T16:09:49Z</time>
					</trkpt>
					<trkpt lat="49.155100" lon="3.835600">
						<ele>222</ele>
						<time>2026-06-07T16:10:06Z</time>
					</trkpt>
					<trkpt lat="49.155390" lon="3.835200">
						<ele>220</ele>
						<time>2026-06-07T16:10:26Z</time>
					</trkpt>
					<trkpt lat="49.155550" lon="3.835430">
						<ele>219</ele>
						<time>2026-06-07T16:10:37Z</time>
					</trkpt>
					<trkpt lat="49.155820" lon="3.835730">
						<ele>219</ele>
						<time>2026-06-07T16:10:54Z</time>
					</trkpt>
					<trkpt lat="49.156260" lon="3.836200">
						<ele>216</ele>
						<time>2026-06-07T16:11:20Z</time>
					</trkpt>
					<trkpt lat="49.156530" lon="3.836520">
						<ele>215</ele>
						<time>2026-06-07T16:11:38Z</time>
					</trkpt>
					<trkpt lat="49.156720" lon="3.836730">
						<ele>215</ele>
						<time>2026-06-07T16:11:49Z</time>
					</trkpt>
					<trkpt lat="49.157000" lon="3.837170">
						<ele>212</ele>
						<time>2026-06-07T16:12:09Z</time>
					</trkpt>
					<trkpt lat="49.157150" lon="3.837470">
						<ele>211</ele>
						<time>2026-06-07T16:12:22Z</time>
					</trkpt>
					<trkpt lat="49.157230" lon="3.837740">
						<ele>209</ele>
						<time>2026-06-07T16:12:31Z</time>
					</trkpt>
					<trkpt lat="49.157270" lon="3.837880">
						<ele>209</ele>
						<time>2026-06-07T16:12:36Z</time>
					</trkpt>
					<trkpt lat="49.158170" lon="3.837840">
						<ele>200</ele>
						<time>2026-06-07T16:13:22Z</time>
					</trkpt>
					<trkpt lat="49.158640" lon="3.837890">
						<ele>196</ele>
						<time>2026-06-07T16:13:45Z</time>
					</trkpt>
					<trkpt lat="49.159160" lon="3.838010">
						<ele>192</ele>
						<time>2026-06-07T16:14:11Z</time>
					</trkpt>
					<trkpt lat="49.159480" lon="3.838080">
						<ele>190</ele>
						<time>2026-06-07T16:14:28Z</time>
					</trkpt>
					<trkpt lat="49.160290" lon="3.838060">
						<ele>187</ele>
						<time>2026-06-07T16:15:08Z</time>
					</trkpt>
					<trkpt lat="49.160750" lon="3.838050">
						<ele>186</ele>
						<time>2026-06-07T16:15:31Z</time>
					</trkpt>
					<trkpt lat="49.161280" lon="3.837950">
						<ele>183</ele>
						<time>2026-06-07T16:15:58Z</time>
					</trkpt>
					<trkpt lat="49.162180" lon="3.837730">
						<ele>179</ele>
						<time>2026-06-07T16:16:43Z</time>
					</trkpt>
					<trkpt lat="49.162220" lon="3.837720">
						<ele>178</ele>
						<time>2026-06-07T16:16:45Z</time>
					</trkpt>
					<trkpt lat="49.163030" lon="3.839290">
						<ele>162</ele>
						<time>2026-06-07T16:17:51Z</time>
					</trkpt>
					<trkpt lat="49.163900" lon="3.840990">
						<ele>151</ele>
						<time>2026-06-07T16:19:02Z</time>
					</trkpt>
					<trkpt lat="49.163980" lon="3.841150">
						<ele>151</ele>
						<time>2026-06-07T16:19:08Z</time>
					</trkpt>
					<trkpt lat="49.164480" lon="3.842210">
						<ele>155</ele>
						<time>2026-06-07T16:19:51Z</time>
					</trkpt>
					<trkpt lat="49.164490" lon="3.842330">
						<ele>156</ele>
						<time>2026-06-07T16:19:55Z</time>
					</trkpt>
					<trkpt lat="49.164040" lon="3.843080">
						<ele>163</ele>
						<time>2026-06-07T16:20:28Z</time>
					</trkpt>
					<trkpt lat="49.164810" lon="3.844370">
						<ele>172</ele>
						<time>2026-06-07T16:21:25Z</time>
					</trkpt>
					<trkpt lat="49.165330" lon="3.845480">
						<ele>181</ele>
						<time>2026-06-07T16:22:10Z</time>
					</trkpt>
					<trkpt lat="49.166070" lon="3.847560">
						<ele>199</ele>
						<time>2026-06-07T16:23:28Z</time>
					</trkpt>
					<trkpt lat="49.166590" lon="3.849170">
						<ele>211</ele>
						<time>2026-06-07T16:24:26Z</time>
					</trkpt>
					<trkpt lat="49.166970" lon="3.850370">
						<ele>220</ele>
						<time>2026-06-07T16:25:10Z</time>
					</trkpt>
					<trkpt lat="49.167430" lon="3.851650">
						<ele>223</ele>
						<time>2026-06-07T16:25:58Z</time>
					</trkpt>
					<trkpt lat="49.167580" lon="3.852420">
						<ele>220</ele>
						<time>2026-06-07T16:26:24Z</time>
					</trkpt>
					<trkpt lat="49.167800" lon="3.853580">
						<ele>216</ele>
						<time>2026-06-07T16:27:04Z</time>
					</trkpt>
					<trkpt lat="49.168040" lon="3.854400">
						<ele>209</ele>
						<time>2026-06-07T16:27:33Z</time>
					</trkpt>
					<trkpt lat="49.168350" lon="3.855030">
						<ele>200</ele>
						<time>2026-06-07T16:27:59Z</time>
					</trkpt>
					<trkpt lat="49.168370" lon="3.855050">
						<ele>199</ele>
						<time>2026-06-07T16:28:00Z</time>
					</trkpt>
					<trkpt lat="49.169280" lon="3.853720">
						<ele>212</ele>
						<time>2026-06-07T16:29:03Z</time>
					</trkpt>
					<trkpt lat="49.169330" lon="3.853670">
						<ele>213</ele>
						<time>2026-06-07T16:29:06Z</time>
					</trkpt>
					<trkpt lat="49.169480" lon="3.853550">
						<ele>214</ele>
						<time>2026-06-07T16:29:14Z</time>
					</trkpt>
					<trkpt lat="49.169740" lon="3.853420">
						<ele>216</ele>
						<time>2026-06-07T16:29:28Z</time>
					</trkpt>
					<trkpt lat="49.169750" lon="3.853400">
						<ele>216</ele>
						<time>2026-06-07T16:29:29Z</time>
					</trkpt>
					<trkpt lat="49.169900" lon="3.853210">
						<ele>218</ele>
						<time>2026-06-07T16:29:39Z</time>
					</trkpt>
					<trkpt lat="49.170410" lon="3.852310">
						<ele>226</ele>
						<time>2026-06-07T16:30:18Z</time>
					</trkpt>
					<trkpt lat="49.171670" lon="3.851320">
						<ele>224</ele>
						<time>2026-06-07T16:31:28Z</time>
					</trkpt>
					<trkpt lat="49.171710" lon="3.851270">
						<ele>224</ele>
						<time>2026-06-07T16:31:31Z</time>
					</trkpt>
					<trkpt lat="49.172370" lon="3.850490">
						<ele>226</ele>
						<time>2026-06-07T16:32:13Z</time>
					</trkpt>
					<trkpt lat="49.173190" lon="3.849760">
						<ele>222</ele>
						<time>2026-06-07T16:33:00Z</time>
					</trkpt>
					<trkpt lat="49.175610" lon="3.848130">
						<ele>224</ele>
						<time>2026-06-07T16:35:13Z</time>
					</trkpt>
					<trkpt lat="49.175910" lon="3.847930">
						<ele>225</ele>
						<time>2026-06-07T16:35:29Z</time>
					</trkpt>
					<trkpt lat="49.177370" lon="3.847150">
						<ele>225</ele>
						<time>2026-06-07T16:36:46Z</time>
					</trkpt>
					<trkpt lat="49.177890" lon="3.846630">
						<ele>226</ele>
						<time>2026-06-07T16:37:17Z</time>
					</trkpt>
					<trkpt lat="49.178290" lon="3.846080">
						<ele>225</ele>
						<time>2026-06-07T16:37:44Z</time>
					</trkpt>
					<trkpt lat="49.178300" lon="3.846070">
						<ele>225</ele>
						<time>2026-06-07T16:37:45Z</time>
					</trkpt>
					<trkpt lat="49.179090" lon="3.845230">
						<ele>223</ele>
						<time>2026-06-07T16:38:33Z</time>
					</trkpt>
					<trkpt lat="49.180390" lon="3.844120">
						<ele>219</ele>
						<time>2026-06-07T16:39:48Z</time>
					</trkpt>
					<trkpt lat="49.180940" lon="3.843710">
						<ele>217</ele>
						<time>2026-06-07T16:40:18Z</time>
					</trkpt>
					<trkpt lat="49.181270" lon="3.843820">
						<ele>213</ele>
						<time>2026-06-07T16:40:35Z</time>
					</trkpt>
					<trkpt lat="49.181820" lon="3.843840">
						<ele>207</ele>
						<time>2026-06-07T16:41:03Z</time>
					</trkpt>
					<trkpt lat="49.182630" lon="3.843410">
						<ele>199</ele>
						<time>2026-06-07T16:41:46Z</time>
					</trkpt>
					<trkpt lat="49.182590" lon="3.843500">
						<ele>199</ele>
						<time>2026-06-07T16:41:49Z</time>
					</trkpt>
					<trkpt lat="49.181980" lon="3.844280">
						<ele>201</ele>
						<time>2026-06-07T16:42:29Z</time>
					</trkpt>
					<trkpt lat="49.181550" lon="3.844640">
						<ele>203</ele>
						<time>2026-06-07T16:42:53Z</time>
					</trkpt>
					<trkpt lat="49.180200" lon="3.846150">
						<ele>201</ele>
						<time>2026-06-07T16:44:17Z</time>
					</trkpt>
					<trkpt lat="49.179540" lon="3.846920">
						<ele>203</ele>
						<time>2026-06-07T16:44:59Z</time>
					</trkpt>
					<trkpt lat="49.179250" lon="3.847380">
						<ele>204</ele>
						<time>2026-06-07T16:45:20Z</time>
					</trkpt>
					<trkpt lat="49.179020" lon="3.847790">
						<ele>205</ele>
						<time>2026-06-07T16:45:37Z</time>
					</trkpt>
					<trkpt lat="49.179040" lon="3.847840">
						<ele>204</ele>
						<time>2026-06-07T16:45:39Z</time>
					</trkpt>
					<trkpt lat="49.178960" lon="3.848650">
						<ele>198</ele>
						<time>2026-06-07T16:46:06Z</time>
					</trkpt>
					<trkpt lat="49.178960" lon="3.848730">
						<ele>198</ele>
						<time>2026-06-07T16:46:09Z</time>
					</trkpt>
					<trkpt lat="49.178940" lon="3.848950">
						<ele>196</ele>
						<time>2026-06-07T16:46:16Z</time>
					</trkpt>
					<trkpt lat="49.178890" lon="3.849350">
						<ele>192</ele>
						<time>2026-06-07T16:46:29Z</time>
					</trkpt>
					<trkpt lat="49.178810" lon="3.849640">
						<ele>190</ele>
						<time>2026-06-07T16:46:39Z</time>
					</trkpt>
					<trkpt lat="49.178660" lon="3.850030">
						<ele>188</ele>
						<time>2026-06-07T16:46:54Z</time>
					</trkpt>
					<trkpt lat="49.178310" lon="3.850680">
						<ele>186</ele>
						<time>2026-06-07T16:47:22Z</time>
					</trkpt>
					<trkpt lat="49.178180" lon="3.850930">
						<ele>184</ele>
						<time>2026-06-07T16:47:32Z</time>
					</trkpt>
					<trkpt lat="49.177990" lon="3.851470">
						<ele>180</ele>
						<time>2026-06-07T16:47:52Z</time>
					</trkpt>
					<trkpt lat="49.177830" lon="3.852030">
						<ele>177</ele>
						<time>2026-06-07T16:48:12Z</time>
					</trkpt>
					<trkpt lat="49.177790" lon="3.852190">
						<ele>177</ele>
						<time>2026-06-07T16:48:18Z</time>
					</trkpt>
					<trkpt lat="49.177700" lon="3.852630">
						<ele>175</ele>
						<time>2026-06-07T16:48:33Z</time>
					</trkpt>
					<trkpt lat="49.177710" lon="3.853010">
						<ele>172</ele>
						<time>2026-06-07T16:48:45Z</time>
					</trkpt>
					<trkpt lat="49.177750" lon="3.853580">
						<ele>169</ele>
						<time>2026-06-07T16:49:04Z</time>
					</trkpt>
					<trkpt lat="49.177750" lon="3.853690">
						<ele>168</ele>
						<time>2026-06-07T16:49:08Z</time>
					</trkpt>
					<trkpt lat="49.177750" lon="3.853830">
						<ele>168</ele>
						<time>2026-06-07T16:49:12Z</time>
					</trkpt>
					<trkpt lat="49.177730" lon="3.853960">
						<ele>167</ele>
						<time>2026-06-07T16:49:17Z</time>
					</trkpt>
					<trkpt lat="49.177680" lon="3.854160">
						<ele>167</ele>
						<time>2026-06-07T16:49:24Z</time>
					</trkpt>
					<trkpt lat="49.177590" lon="3.854440">
						<ele>165</ele>
						<time>2026-06-07T16:49:34Z</time>
					</trkpt>
					<trkpt lat="49.177390" lon="3.854790">
						<ele>163</ele>
						<time>2026-06-07T16:49:49Z</time>
					</trkpt>
					<trkpt lat="49.177090" lon="3.855080">
						<ele>159</ele>
						<time>2026-06-07T16:50:07Z</time>
					</trkpt>
					<trkpt lat="49.176650" lon="3.855450">
						<ele>155</ele>
						<time>2026-06-07T16:50:32Z</time>
					</trkpt>
					<trkpt lat="49.176410" lon="3.855670">
						<ele>151</ele>
						<time>2026-06-07T16:50:46Z</time>
					</trkpt>
					<trkpt lat="49.176180" lon="3.855970">
						<ele>146</ele>
						<time>2026-06-07T16:51:01Z</time>
					</trkpt>
					<trkpt lat="49.175830" lon="3.856590">
						<ele>140</ele>
						<time>2026-06-07T16:51:28Z</time>
					</trkpt>
					<trkpt lat="49.175700" lon="3.856810">
						<ele>140</ele>
						<time>2026-06-07T16:51:38Z</time>
					</trkpt>
					<trkpt lat="49.175950" lon="3.857100">
						<ele>138</ele>
						<time>2026-06-07T16:51:53Z</time>
					</trkpt>
					<trkpt lat="49.176800" lon="3.858060">
						<ele>135</ele>
						<time>2026-06-07T16:52:46Z</time>
					</trkpt>
					</trkseg>
				</trk>
			</gpx>